{
"type": "FeatureCollection",
"name": "layer1",
"features": [
{ "type": "Feature", "properties": { "COUNTYSN": "10009003", "COUNTYNAME": "雲林縣" }, "geometry": { "type": "Polygon", "coordinates": [ [ [ 120.1319224, 23.5300548 ], [ 120.1365685, 23.5433915 ], [ 120.126315, 23.5445163 ], [ 120.1272763, 23.5300548 ], [ 120.1319224, 23.5300548 ] ] ] } },
{ "type": "Feature", "properties": { "COUNTYSN": "10009004", "COUNTYNAME": "雲林縣" }, "geometry": { "type": "Polygon", "coordinates": [ [ [ 120.0974769, 23.521378 ], [ 120.1053272, 23.5360001 ], [ 120.0984381, 23.542106 ], [ 120.0912286, 23.5311796 ], [ 120.0974769, 23.521378 ] ] ] } },
{ "type": "Feature", "properties": { "COUNTYSN": "10009005", "COUNTYNAME": "雲林縣" }, "geometry": { "type": "Polygon", "coordinates": [ [ [ 120.0598271, 23.4895628 ], [ 120.0699204, 23.5037029 ], [ 120.0820965, 23.5118977 ], [ 120.0936318, 23.5106122 ], [ 120.090748, 23.5202532 ], [ 120.0811353, 23.5241096 ], [ 120.0160893, 23.4842603 ], [ 119.9968639, 23.4657818 ], [ 120.0043938, 23.4603186 ], [ 120.0245805, 23.4603186 ], [ 120.0229784, 23.4709236 ], [ 120.0298675, 23.4796005 ], [ 120.0468499, 23.477833 ], [ 120.0598271, 23.4895628 ] ] ] } },
{ "type": "Feature", "properties": { "COUNTYSN": "10009012", "COUNTYNAME": "雲林縣" }, "geometry": { "type": "Polygon", "coordinates": [ [ [ 120.730794, 23.6107175 ], [ 120.7306338, 23.6184303 ], [ 120.7186179, 23.6299994 ], [ 120.7051601, 23.6171448 ], [ 120.6915421, 23.6201978 ], [ 120.6835315, 23.6107175 ], [ 120.6614223, 23.6102355 ], [ 120.6516494, 23.6163414 ], [ 120.6530913, 23.6295174 ], [ 120.6449205, 23.6311242 ], [ 120.6338659, 23.6192337 ], [ 120.6290595, 23.6351413 ], [ 120.6349874, 23.6518523 ], [ 120.6470033, 23.6729017 ], [ 120.6479645, 23.6831854 ], [ 120.6391529, 23.7106621 ], [ 120.6402744, 23.7309081 ], [ 120.6558149, 23.7354072 ], [ 120.6554945, 23.7554925 ], [ 120.6402744, 23.7860222 ], [ 120.630181, 23.7897179 ], [ 120.5926915, 23.7910034 ], [ 120.5519977, 23.8009657 ], [ 120.5109835, 23.8001623 ], [ 120.4831066, 23.8065896 ], [ 120.4520255, 23.8171947 ], [ 120.4331205, 23.83021 ], [ 120.4103705, 23.8263536 ], [ 120.3703175, 23.8286031 ], [ 120.360064, 23.8233006 ], [ 120.3081554, 23.8202476 ], [ 120.2551253, 23.834227 ], [ 120.2423083, 23.8422611 ], [ 120.2274086, 23.8465996 ], [ 120.218597, 23.840815 ], [ 120.2230829, 23.8356732 ], [ 120.2128293, 23.8228186 ], [ 120.2001726, 23.8191229 ], [ 120.1764613, 23.8054648 ], [ 120.1819085, 23.7987162 ], [ 120.1710141, 23.7723642 ], [ 120.1657271, 23.7705967 ], [ 120.169412, 23.7585455 ], [ 120.1809472, 23.7585455 ], [ 120.1735775, 23.7362106 ], [ 120.1697324, 23.7076091 ], [ 120.1787042, 23.7018245 ], [ 120.1631637, 23.683346 ], [ 120.1508274, 23.6558693 ], [ 120.1455404, 23.6520129 ], [ 120.139933, 23.6213226 ], [ 120.1415351, 23.612003 ], [ 120.1396126, 23.5496581 ], [ 120.1503467, 23.531983 ], [ 120.1458608, 23.5207352 ], [ 120.1665281, 23.5172002 ], [ 120.1804666, 23.5099695 ], [ 120.1956867, 23.5128618 ], [ 120.2230829, 23.5043456 ], [ 120.2415073, 23.5090054 ], [ 120.2471147, 23.5162361 ], [ 120.2421481, 23.5414633 ], [ 120.2560865, 23.5461231 ], [ 120.2628154, 23.5342326 ], [ 120.2724281, 23.5313403 ], [ 120.276113, 23.5430701 ], [ 120.2908525, 23.5512649 ], [ 120.2932557, 23.5641195 ], [ 120.3105585, 23.5646016 ], [ 120.3325075, 23.5782596 ], [ 120.333629, 23.591757 ], [ 120.3566995, 23.5940065 ], [ 120.3664724, 23.6078252 ], [ 120.37977, 23.6099141 ], [ 120.3864989, 23.6210012 ], [ 120.4026803, 23.6269464 ], [ 120.4299163, 23.6184303 ], [ 120.4444956, 23.6304815 ], [ 120.4601963, 23.629196 ], [ 120.4786207, 23.632731 ], [ 120.4858302, 23.6306421 ], [ 120.5036137, 23.6353019 ], [ 120.5063373, 23.626143 ], [ 120.5175521, 23.6110389 ], [ 120.5369378, 23.5948099 ], [ 120.5566438, 23.5928817 ], [ 120.5768305, 23.5835621 ], [ 120.618806, 23.5842049 ], [ 120.6255349, 23.5906322 ], [ 120.6487656, 23.5933638 ], [ 120.6441194, 23.579063 ], [ 120.6508483, 23.572475 ], [ 120.6705544, 23.5782596 ], [ 120.6761618, 23.5705468 ], [ 120.6941055, 23.5763314 ], [ 120.7093256, 23.575046 ], [ 120.7184577, 23.5691007 ], [ 120.7320757, 23.5771348 ], [ 120.7325563, 23.5972202 ], [ 120.7248662, 23.6036475 ], [ 120.730794, 23.6107175 ] ] ] } },
{ "type": "Feature", "properties": { "COUNTYSN": "10003001", "COUNTYNAME": "桃園縣" }, "geometry": { "type": "Polygon", "coordinates": [ [ [ 121.2835247, 25.1172777 ], [ 121.2604542, 25.1219375 ], [ 121.2426706, 25.1151888 ], [ 121.2122304, 25.1087615 ], [ 121.1732989, 25.0859446 ], [ 121.1199484, 25.0746968 ], [ 121.0912705, 25.0616815 ], [ 121.0837406, 25.0523619 ], [ 121.0497757, 25.04015 ], [ 121.0254235, 25.0118699 ], [ 121.0105238, 24.9872855 ], [ 121.0124463, 24.9742702 ], [ 121.0026734, 24.9583626 ], [ 120.9919392, 24.9496857 ], [ 120.9860114, 24.939402 ], [ 121.0029938, 24.9400448 ], [ 121.0071593, 24.9461507 ], [ 121.0193354, 24.9403661 ], [ 121.0377598, 24.9463114 ], [ 121.057626, 24.9329747 ], [ 121.0608303, 24.9202808 ], [ 121.059068, 24.9071048 ], [ 121.0710838, 24.8995527 ], [ 121.0835804, 24.8987493 ], [ 121.0911103, 24.8934468 ], [ 121.109054, 24.8977852 ], [ 121.1084132, 24.8860554 ], [ 121.1356492, 24.8780213 ], [ 121.1388534, 24.8823597 ], [ 121.1558359, 24.8805922 ], [ 121.1612831, 24.8595428 ], [ 121.1519908, 24.8437959 ], [ 121.176343, 24.8319054 ], [ 121.1737796, 24.8275669 ], [ 121.2032586, 24.8172832 ], [ 121.2074241, 24.8069996 ], [ 121.217197, 24.8124628 ], [ 121.2215227, 24.7994475 ], [ 121.2453942, 24.8069996 ], [ 121.2471566, 24.7973586 ], [ 121.2612552, 24.7899672 ], [ 121.2602939, 24.7819331 ], [ 121.2771162, 24.7710067 ], [ 121.3014684, 24.7631332 ], [ 121.3077166, 24.7550991 ], [ 121.2985846, 24.730836 ], [ 121.3075564, 24.7199096 ], [ 121.2995458, 24.6966106 ], [ 121.3038715, 24.6929149 ], [ 121.3181304, 24.6980568 ], [ 121.3296656, 24.6909867 ], [ 121.3387977, 24.6795782 ], [ 121.339759, 24.6704193 ], [ 121.3535372, 24.6662416 ], [ 121.3522555, 24.6448708 ], [ 121.3580231, 24.633623 ], [ 121.3655531, 24.6307307 ], [ 121.3588242, 24.6173941 ], [ 121.3634703, 24.6029326 ], [ 121.3724422, 24.5940951 ], [ 121.3875021, 24.586543 ], [ 121.4030426, 24.5916849 ], [ 121.4128156, 24.6037361 ], [ 121.4278755, 24.606307 ], [ 121.440372, 24.6349085 ], [ 121.4512664, 24.6509767 ], [ 121.4475815, 24.6572434 ], [ 121.4597576, 24.6733116 ], [ 121.4797841, 24.6737937 ], [ 121.4730552, 24.6900226 ], [ 121.4741767, 24.6961286 ], [ 121.4501449, 24.7057695 ], [ 121.435085, 24.7340497 ], [ 121.4232293, 24.7618477 ], [ 121.4254723, 24.7669896 ], [ 121.4495041, 24.7861108 ], [ 121.4386097, 24.795109 ], [ 121.4363667, 24.8121414 ], [ 121.4238702, 24.8253174 ], [ 121.4169811, 24.8254781 ], [ 121.4156994, 24.8356011 ], [ 121.4030426, 24.8434745 ], [ 121.3934299, 24.8439566 ], [ 121.3729228, 24.8347977 ], [ 121.3469685, 24.8458848 ], [ 121.3535372, 24.8585787 ], [ 121.345847, 24.8682196 ], [ 121.3543383, 24.8732008 ], [ 121.3456868, 24.8799495 ], [ 121.3421622, 24.8926434 ], [ 121.3333505, 24.8916793 ], [ 121.3203734, 24.9001955 ], [ 121.326141, 24.9091937 ], [ 121.3174895, 24.9164244 ], [ 121.3246991, 24.9233338 ], [ 121.3157272, 24.9384379 ], [ 121.3279033, 24.9492037 ], [ 121.3296656, 24.9668788 ], [ 121.3272625, 24.9782872 ], [ 121.3426428, 24.9823043 ], [ 121.3687573, 24.9768411 ], [ 121.4016007, 24.999176 ], [ 121.3971148, 25.0162083 ], [ 121.4116941, 25.0182972 ], [ 121.3982363, 25.030027 ], [ 121.3980761, 25.0510765 ], [ 121.3875021, 25.0550935 ], [ 121.388944, 25.0607174 ], [ 121.3769281, 25.0660199 ], [ 121.3548189, 25.0650558 ], [ 121.3461675, 25.083695 ], [ 121.3389579, 25.083695 ], [ 121.3248593, 25.0925326 ], [ 121.3027501, 25.096871 ], [ 121.2981039, 25.1045838 ], [ 121.2916955, 25.1026556 ], [ 121.2827236, 25.110047 ], [ 121.2835247, 25.1172777 ] ] ] } },
{ "type": "Feature", "properties": { "COUNTYSN": "10014065", "COUNTYNAME": "台東縣" }, "geometry": { "type": "Polygon", "coordinates": [ [ [ 121.5004514, 22.6466218 ], [ 121.5102243, 22.664779 ], [ 121.5094233, 22.678919 ], [ 121.4938827, 22.6763481 ], [ 121.4640833, 22.6785977 ], [ 121.4644037, 22.6702422 ], [ 121.4744971, 22.6596371 ], [ 121.4724143, 22.6471039 ], [ 121.4919602, 22.6397125 ], [ 121.494844, 22.6334458 ], [ 121.5058986, 22.6334458 ], [ 121.5004514, 22.6466218 ] ] ] } },
{ "type": "Feature", "properties": { "COUNTYSN": "10014070", "COUNTYNAME": "台東縣" }, "geometry": { "type": "Polygon", "coordinates": [ [ [ 121.4958053, 23.4346094 ], [ 121.4804249, 23.430753 ], [ 121.4732154, 23.4405546 ], [ 121.4620006, 23.4394298 ], [ 121.4474213, 23.4437683 ], [ 121.4408526, 23.4339666 ], [ 121.4333227, 23.4328418 ], [ 121.4195445, 23.4193445 ], [ 121.4104124, 23.3987771 ], [ 121.3999986, 23.3854405 ], [ 121.4073684, 23.3645517 ], [ 121.4227487, 23.3600526 ], [ 121.4020814, 23.334022 ], [ 121.3998384, 23.3232563 ], [ 121.3902257, 23.3205247 ], [ 121.3878225, 23.3107231 ], [ 121.3764475, 23.2957796 ], [ 121.3778894, 23.2695883 ], [ 121.3593048, 23.252556 ], [ 121.3615478, 23.2469321 ], [ 121.3525759, 23.2313459 ], [ 121.356421, 23.223151 ], [ 121.3464879, 23.2170451 ], [ 121.3469685, 23.2093323 ], [ 121.3346322, 23.1778385 ], [ 121.3237378, 23.1783206 ], [ 121.3174895, 23.1643412 ], [ 121.3272625, 23.1521293 ], [ 121.3203734, 23.1378286 ], [ 121.3226163, 23.1199928 ], [ 121.3160476, 23.1106732 ], [ 121.3029103, 23.1109946 ], [ 121.2844859, 23.1064955 ], [ 121.2723098, 23.0978186 ], [ 121.2642992, 23.1039245 ], [ 121.2670228, 23.1143689 ], [ 121.2492393, 23.1315619 ], [ 121.2385051, 23.1286697 ], [ 121.230815, 23.1392747 ], [ 121.21191, 23.1442559 ], [ 121.2125508, 23.1548609 ], [ 121.1992533, 23.1751069 ], [ 121.1981318, 23.1886043 ], [ 121.1909222, 23.2022623 ], [ 121.1758623, 23.2101357 ], [ 121.1616035, 23.2062794 ], [ 121.1559961, 23.2001734 ], [ 121.1398147, 23.2014589 ], [ 121.1292407, 23.2233117 ], [ 121.1085734, 23.2234724 ], [ 121.092392, 23.2339168 ], [ 121.0795751, 23.232792 ], [ 121.0624324, 23.2658926 ], [ 121.062112, 23.2790686 ], [ 121.0563444, 23.2901557 ], [ 121.0388813, 23.3006001 ], [ 121.0283073, 23.297065 ], [ 121.0105238, 23.2927266 ], [ 120.9860114, 23.280354 ], [ 120.9709515, 23.2811575 ], [ 120.9379478, 23.2451646 ], [ 120.9262524, 23.2445218 ], [ 120.9158386, 23.2379338 ], [ 120.9116731, 23.2284536 ], [ 120.9116731, 23.2091717 ], [ 120.9065463, 23.1964777 ], [ 120.9124742, 23.1866761 ], [ 120.9092699, 23.1797667 ], [ 120.8983755, 23.176071 ], [ 120.8950111, 23.1606455 ], [ 120.8764265, 23.1513259 ], [ 120.8879618, 23.1367038 ], [ 120.885078, 23.1198321 ], [ 120.8894037, 23.1100305 ], [ 120.8855586, 23.0889811 ], [ 120.869217, 23.0597368 ], [ 120.8812329, 23.0441506 ], [ 120.8796308, 23.0346703 ], [ 120.8610462, 23.0296892 ], [ 120.8605656, 23.007997 ], [ 120.8322081, 22.9800382 ], [ 120.8301253, 22.9700759 ], [ 120.8209932, 22.960917 ], [ 120.8245179, 22.9517581 ], [ 120.8217943, 22.9352078 ], [ 120.8333296, 22.9122302 ], [ 120.8286834, 22.9041961 ], [ 120.841981, 22.8812184 ], [ 120.8597645, 22.8781655 ], [ 120.8648913, 22.8723809 ], [ 120.8592839, 22.863222 ], [ 120.8690568, 22.8582408 ], [ 120.8647311, 22.8431367 ], [ 120.861687, 22.8265863 ], [ 120.8685761, 22.8169454 ], [ 120.891166, 22.8116429 ], [ 120.9031819, 22.8000737 ], [ 120.9038227, 22.77565 ], [ 120.8932488, 22.7664911 ], [ 120.8948509, 22.7377289 ], [ 120.8837963, 22.7173222 ], [ 120.8485497, 22.7170008 ], [ 120.8349317, 22.6965941 ], [ 120.8203524, 22.6957907 ], [ 120.8080161, 22.6892027 ], [ 120.7867079, 22.6928984 ], [ 120.7913541, 22.6787583 ], [ 120.7863875, 22.6630114 ], [ 120.7615547, 22.6302322 ], [ 120.7529032, 22.611593 ], [ 120.7548258, 22.6019521 ], [ 120.7458539, 22.5895795 ], [ 120.7487377, 22.5720651 ], [ 120.7415282, 22.5686908 ], [ 120.7394455, 22.5514977 ], [ 120.7500194, 22.5339833 ], [ 120.7537043, 22.5110057 ], [ 120.7626762, 22.5008827 ], [ 120.7637976, 22.4910811 ], [ 120.7508205, 22.4791905 ], [ 120.7543452, 22.4724419 ], [ 120.7514613, 22.4584625 ], [ 120.7581902, 22.4586232 ], [ 120.7764544, 22.4494643 ], [ 120.7750125, 22.443519 ], [ 120.7895917, 22.4176491 ], [ 120.779979, 22.4092936 ], [ 120.7645987, 22.4088116 ], [ 120.7577096, 22.4047945 ], [ 120.7522624, 22.3924219 ], [ 120.7564279, 22.3885655 ], [ 120.7487377, 22.3805314 ], [ 120.7434507, 22.3673554 ], [ 120.752743, 22.3602854 ], [ 120.7629966, 22.3591606 ], [ 120.7673223, 22.3475915 ], [ 120.7851058, 22.3455026 ], [ 120.792796, 22.3347369 ], [ 120.7964808, 22.3197934 ], [ 120.7931164, 22.3125627 ], [ 120.7780565, 22.3085456 ], [ 120.7777361, 22.2979405 ], [ 120.7899122, 22.2934414 ], [ 120.798083, 22.2764091 ], [ 120.7996851, 22.2571272 ], [ 120.8153858, 22.2632331 ], [ 120.8394176, 22.2436298 ], [ 120.858643, 22.2407375 ], [ 120.8663332, 22.2298111 ], [ 120.8804318, 22.2344709 ], [ 120.8962928, 22.2463614 ], [ 120.8919671, 22.2768911 ], [ 120.8924477, 22.3180259 ], [ 120.8948509, 22.3344155 ], [ 120.902541, 22.352412 ], [ 120.9087893, 22.3593213 ], [ 120.9148774, 22.3848698 ], [ 120.9220869, 22.3983672 ], [ 120.9464391, 22.4568557 ], [ 120.959256, 22.5040963 ], [ 120.9749568, 22.5481234 ], [ 120.9850501, 22.5686908 ], [ 121.0092421, 22.5889368 ], [ 121.0126065, 22.6194665 ], [ 121.0222192, 22.6491927 ], [ 121.0347158, 22.6670285 ], [ 121.0560239, 22.6771515 ], [ 121.0774923, 22.69563 ], [ 121.1008832, 22.7049496 ], [ 121.127959, 22.7198931 ], [ 121.1569573, 22.7473698 ], [ 121.1729785, 22.755404 ], [ 121.1798676, 22.769544 ], [ 121.1830719, 22.7872191 ], [ 121.2010156, 22.7957353 ], [ 121.1923641, 22.8254616 ], [ 121.1875578, 22.8291573 ], [ 121.1898008, 22.8489212 ], [ 121.2071036, 22.8643468 ], [ 121.2266495, 22.8680425 ], [ 121.233859, 22.8651502 ], [ 121.2402675, 22.879933 ], [ 121.2473168, 22.8813791 ], [ 121.2607746, 22.9049995 ], [ 121.2678239, 22.9109447 ], [ 121.2872095, 22.9527222 ], [ 121.299706, 22.9597922 ], [ 121.3168487, 22.9822878 ], [ 121.3277431, 23.0147457 ], [ 121.3363945, 23.0198875 ], [ 121.339759, 23.0382054 ], [ 121.345847, 23.0508993 ], [ 121.3482502, 23.0680923 ], [ 121.3661939, 23.0962118 ], [ 121.3865408, 23.1031211 ], [ 121.3963137, 23.1171005 ], [ 121.4004792, 23.1138869 ], [ 121.4110532, 23.1220817 ], [ 121.4011201, 23.1304372 ], [ 121.3991976, 23.1473088 ], [ 121.4073684, 23.1657873 ], [ 121.3977556, 23.186194 ], [ 121.3974352, 23.2078862 ], [ 121.410092, 23.2135101 ], [ 121.4200251, 23.2265254 ], [ 121.4140972, 23.2319886 ], [ 121.4277153, 23.2787472 ], [ 121.4382892, 23.2989932 ], [ 121.4483826, 23.3108837 ], [ 121.4626414, 23.3142581 ], [ 121.4677682, 23.3316118 ], [ 121.4719337, 23.3721038 ], [ 121.4780217, 23.3958848 ], [ 121.4958053, 23.4346094 ] ] ] } },
{ "type": "Feature", "properties": { "COUNTYSN": "10014082", "COUNTYNAME": "台東縣" }, "geometry": { "type": "Polygon", "coordinates": [ [ [ 121.5094233, 22.0691285 ], [ 121.5073405, 22.05772 ], [ 121.5172736, 22.0429372 ], [ 121.5337754, 22.0267083 ], [ 121.5531611, 22.0247801 ], [ 121.5693425, 22.0087118 ], [ 121.5703037, 22.0029273 ], [ 121.593214, 22.0026059 ], [ 121.6005838, 22.0204417 ], [ 121.5698231, 22.040045 ], [ 121.5640555, 22.0514534 ], [ 121.5741488, 22.0609337 ], [ 121.5688618, 22.0675217 ], [ 121.5680608, 22.0851968 ], [ 121.5318529, 22.0811797 ], [ 121.5127877, 22.081019 ], [ 121.5055782, 22.0860002 ], [ 121.4996503, 22.0800549 ], [ 121.5094233, 22.0691285 ] ] ] } },
{ "type": "Feature", "properties": { "COUNTYSN": "10001057", "COUNTYNAME": "台北縣" }, "geometry": { "type": "Polygon", "coordinates": [ [ [ 121.4797841, 24.6737937 ], [ 121.4924408, 24.6731509 ], [ 121.5118264, 24.6843987 ], [ 121.5238423, 24.6832739 ], [ 121.5363388, 24.6882551 ], [ 121.5432279, 24.7056088 ], [ 121.5704639, 24.7139643 ], [ 121.5794358, 24.7223198 ], [ 121.5869658, 24.7200703 ], [ 121.5941753, 24.7292292 ], [ 121.5960978, 24.7481897 ], [ 121.5888883, 24.7550991 ], [ 121.5975397, 24.7726135 ], [ 121.5935344, 24.7872356 ], [ 121.6095556, 24.7938236 ], [ 121.625737, 24.7954304 ], [ 121.6258972, 24.8087671 ], [ 121.6457635, 24.8097312 ], [ 121.6472054, 24.8139089 ], [ 121.6608234, 24.8108559 ], [ 121.6691544, 24.817926 ], [ 121.6768446, 24.8140696 ], [ 121.6882196, 24.8161585 ], [ 121.6875788, 24.8248353 ], [ 121.7305155, 24.855365 ], [ 121.7420508, 24.8524727 ], [ 121.761116, 24.8568112 ], [ 121.7692868, 24.8658094 ], [ 121.7753748, 24.8651667 ], [ 121.7832252, 24.8741649 ], [ 121.7816231, 24.8894297 ], [ 121.8115827, 24.9064621 ], [ 121.8183116, 24.9027664 ], [ 121.8314489, 24.9048553 ], [ 121.8535582, 24.9251013 ], [ 121.8397799, 24.9422943 ], [ 121.8415423, 24.9543455 ], [ 121.8473099, 24.9602908 ], [ 121.8610881, 24.9636651 ], [ 121.8718223, 24.9607728 ], [ 121.8886445, 24.9631831 ], [ 121.9126763, 24.9782872 ], [ 121.9335038, 24.9808582 ], [ 121.9440778, 24.9879282 ], [ 121.9629828, 24.9876068 ], [ 121.9660268, 24.9831077 ], [ 121.9841308, 24.9919453 ], [ 121.9959864, 25.0017469 ], [ 122.0047981, 25.0030324 ], [ 122.0065604, 25.0105844 ], [ 121.9964671, 25.0186186 ], [ 121.9786836, 25.0255279 ], [ 121.9451993, 25.0210288 ], [ 121.9322221, 25.0327586 ], [ 121.9277362, 25.0460953 ], [ 121.9307802, 25.0640917 ], [ 121.925333, 25.0671447 ], [ 121.9136376, 25.0853018 ], [ 121.9232503, 25.1052265 ], [ 121.9174827, 25.1169563 ], [ 121.9062678, 25.1216161 ], [ 121.8681374, 25.1222589 ], [ 121.8418627, 25.1288468 ], [ 121.8255211, 25.1212948 ], [ 121.8197535, 25.1227409 ], [ 121.8211954, 25.1341494 ], [ 121.8032517, 25.1357562 ], [ 121.8048538, 25.1249905 ], [ 121.7978045, 25.1143854 ], [ 121.7897939, 25.1124572 ], [ 121.7729716, 25.12017 ], [ 121.7559892, 25.1084401 ], [ 121.7615966, 25.0783925 ], [ 121.7756952, 25.070037 ], [ 121.7623977, 25.0570217 ], [ 121.7591934, 25.0594319 ], [ 121.7433325, 25.0525226 ], [ 121.7321176, 25.0526833 ], [ 121.7124116, 25.0679481 ], [ 121.6992742, 25.0674661 ], [ 121.6556966, 25.0934967 ], [ 121.6489677, 25.1020128 ], [ 121.6432001, 25.1277221 ], [ 121.6294219, 25.1339887 ], [ 121.6345487, 25.143951 ], [ 121.6494484, 25.1449151 ], [ 121.65826, 25.1523065 ], [ 121.6776456, 25.1556808 ], [ 121.7088869, 25.1754448 ], [ 121.6925453, 25.1801046 ], [ 121.6858164, 25.1895849 ], [ 121.6949485, 25.2029215 ], [ 121.6933464, 25.2080634 ], [ 121.6712372, 25.2024395 ], [ 121.6536139, 25.2160975 ], [ 121.6508903, 25.2308803 ], [ 121.6428797, 25.2308803 ], [ 121.6342282, 25.2395572 ], [ 121.6331067, 25.2598032 ], [ 121.6175662, 25.2776389 ], [ 121.5789552, 25.2982063 ], [ 121.5680608, 25.2977243 ], [ 121.5605308, 25.2919397 ], [ 121.5403441, 25.2949927 ], [ 121.5272068, 25.2856731 ], [ 121.5127877, 25.2856731 ], [ 121.4791432, 25.267998 ], [ 121.4730552, 25.25434 ], [ 121.4475815, 25.2459845 ], [ 121.4392505, 25.2189898 ], [ 121.4333227, 25.2160975 ], [ 121.4176219, 25.1944053 ], [ 121.4089705, 25.1881387 ], [ 121.4064071, 25.173838 ], [ 121.4128156, 25.1678927 ], [ 121.4004792, 25.1548774 ], [ 121.3865408, 25.1453971 ], [ 121.3501728, 25.1298109 ], [ 121.3328699, 25.1246691 ], [ 121.31028, 25.1232229 ], [ 121.3048328, 25.1261152 ], [ 121.2835247, 25.1172777 ], [ 121.2827236, 25.110047 ], [ 121.2916955, 25.1026556 ], [ 121.2981039, 25.1045838 ], [ 121.3027501, 25.096871 ], [ 121.3248593, 25.0925326 ], [ 121.3389579, 25.083695 ], [ 121.3461675, 25.083695 ], [ 121.3548189, 25.0650558 ], [ 121.3769281, 25.0660199 ], [ 121.388944, 25.0607174 ], [ 121.3875021, 25.0550935 ], [ 121.3980761, 25.0510765 ], [ 121.3982363, 25.030027 ], [ 121.4116941, 25.0182972 ], [ 121.3971148, 25.0162083 ], [ 121.4016007, 24.999176 ], [ 121.3687573, 24.9768411 ], [ 121.3426428, 24.9823043 ], [ 121.3272625, 24.9782872 ], [ 121.3296656, 24.9668788 ], [ 121.3279033, 24.9492037 ], [ 121.3157272, 24.9384379 ], [ 121.3246991, 24.9233338 ], [ 121.3174895, 24.9164244 ], [ 121.326141, 24.9091937 ], [ 121.3203734, 24.9001955 ], [ 121.3333505, 24.8916793 ], [ 121.3421622, 24.8926434 ], [ 121.3456868, 24.8799495 ], [ 121.3543383, 24.8732008 ], [ 121.345847, 24.8682196 ], [ 121.3535372, 24.8585787 ], [ 121.3469685, 24.8458848 ], [ 121.3729228, 24.8347977 ], [ 121.3934299, 24.8439566 ], [ 121.4030426, 24.8434745 ], [ 121.4156994, 24.8356011 ], [ 121.4169811, 24.8254781 ], [ 121.4238702, 24.8253174 ], [ 121.4363667, 24.8121414 ], [ 121.4386097, 24.795109 ], [ 121.4495041, 24.7861108 ], [ 121.4254723, 24.7669896 ], [ 121.4232293, 24.7618477 ], [ 121.435085, 24.7340497 ], [ 121.4501449, 24.7057695 ], [ 121.4741767, 24.6961286 ], [ 121.4730552, 24.6900226 ], [ 121.4797841, 24.6737937 ] ], [ [ 121.527367, 24.9869641 ], [ 121.532654, 25.0020683 ], [ 121.5305712, 25.009781 ], [ 121.519837, 25.0192613 ], [ 121.5103845, 25.0216715 ], [ 121.4930817, 25.009299 ], [ 121.4889161, 25.0139588 ], [ 121.4874742, 25.0359723 ], [ 121.503175, 25.0483448 ], [ 121.5070201, 25.0711618 ], [ 121.5025342, 25.083213 ], [ 121.4887559, 25.0971924 ], [ 121.4661661, 25.1016915 ], [ 121.457034, 25.1092436 ], [ 121.459277, 25.1219375 ], [ 121.4828281, 25.1502176 ], [ 121.487314, 25.1513424 ], [ 121.5028546, 25.1733559 ], [ 121.519837, 25.1691782 ], [ 121.5217596, 25.1791405 ], [ 121.5427473, 25.1889421 ], [ 121.5549234, 25.2083847 ], [ 121.5624534, 25.2095095 ], [ 121.5728671, 25.1950481 ], [ 121.5831207, 25.1950481 ], [ 121.5834411, 25.1770516 ], [ 121.5770326, 25.1669286 ], [ 121.587927, 25.1629116 ], [ 121.5957774, 25.1436296 ], [ 121.6041084, 25.1362382 ], [ 121.5956172, 25.1132606 ], [ 121.6262176, 25.0957462 ], [ 121.6286208, 25.0862659 ], [ 121.6161243, 25.0639311 ], [ 121.6218919, 25.0597533 ], [ 121.6164447, 25.0481842 ], [ 121.6220521, 25.0399894 ], [ 121.6502494, 25.0276168 ], [ 121.6649889, 25.029545 ], [ 121.6641878, 25.023439 ], [ 121.6324659, 25.0256886 ], [ 121.623494, 25.0173331 ], [ 121.6041084, 25.0191006 ], [ 121.5976999, 25.0147622 ], [ 121.5959376, 25.0043178 ], [ 121.6020257, 24.9903384 ], [ 121.6001031, 24.9770018 ], [ 121.6114782, 24.9745915 ], [ 121.619649, 24.9672001 ], [ 121.5968989, 24.9606121 ], [ 121.5747897, 24.9668788 ], [ 121.5611717, 24.9646292 ], [ 121.5530009, 24.9805368 ], [ 121.533455, 24.9921059 ], [ 121.527367, 24.9869641 ] ] ] } },
{ "type": "Feature", "properties": { "COUNTYSN": "63000001", "COUNTYNAME": "台北市" }, "geometry": { "type": "Polygon", "coordinates": [ [ [ 121.527367, 24.9869641 ], [ 121.533455, 24.9921059 ], [ 121.5530009, 24.9805368 ], [ 121.5611717, 24.9646292 ], [ 121.5747897, 24.9668788 ], [ 121.5968989, 24.9606121 ], [ 121.619649, 24.9672001 ], [ 121.6114782, 24.9745915 ], [ 121.6001031, 24.9770018 ], [ 121.6020257, 24.9903384 ], [ 121.5959376, 25.0043178 ], [ 121.5976999, 25.0147622 ], [ 121.6041084, 25.0191006 ], [ 121.623494, 25.0173331 ], [ 121.6324659, 25.0256886 ], [ 121.6641878, 25.023439 ], [ 121.6649889, 25.029545 ], [ 121.6502494, 25.0276168 ], [ 121.6220521, 25.0399894 ], [ 121.6164447, 25.0481842 ], [ 121.6218919, 25.0597533 ], [ 121.6161243, 25.0639311 ], [ 121.6286208, 25.0862659 ], [ 121.6262176, 25.0957462 ], [ 121.5956172, 25.1132606 ], [ 121.6041084, 25.1362382 ], [ 121.5957774, 25.1436296 ], [ 121.587927, 25.1629116 ], [ 121.5770326, 25.1669286 ], [ 121.5834411, 25.1770516 ], [ 121.5831207, 25.1950481 ], [ 121.5728671, 25.1950481 ], [ 121.5624534, 25.2095095 ], [ 121.5549234, 25.2083847 ], [ 121.5427473, 25.1889421 ], [ 121.5217596, 25.1791405 ], [ 121.519837, 25.1691782 ], [ 121.5028546, 25.1733559 ], [ 121.487314, 25.1513424 ], [ 121.4828281, 25.1502176 ], [ 121.459277, 25.1219375 ], [ 121.457034, 25.1092436 ], [ 121.4661661, 25.1016915 ], [ 121.4887559, 25.0971924 ], [ 121.5025342, 25.083213 ], [ 121.5070201, 25.0711618 ], [ 121.503175, 25.0483448 ], [ 121.4874742, 25.0359723 ], [ 121.4889161, 25.0139588 ], [ 121.4930817, 25.009299 ], [ 121.5103845, 25.0216715 ], [ 121.519837, 25.0192613 ], [ 121.5305712, 25.009781 ], [ 121.532654, 25.0020683 ], [ 121.527367, 24.9869641 ] ] ] } },
{ "type": "Feature", "properties": { "COUNTYSN": "10011001", "COUNTYNAME": "台南縣" }, "geometry": { "type": "Polygon", "coordinates": [ [ [ 120.6535719, 23.2245972 ], [ 120.6282585, 23.2294177 ], [ 120.6098341, 23.222669 ], [ 120.5971774, 23.2289356 ], [ 120.5866034, 23.2241151 ], [ 120.5782724, 23.2147955 ], [ 120.5652953, 23.2209015 ], [ 120.5548815, 23.2176878 ], [ 120.5415839, 23.2278108 ], [ 120.5263638, 23.2310245 ], [ 120.518994, 23.23938 ], [ 120.5305293, 23.2490209 ], [ 120.5319712, 23.2554482 ], [ 120.5221983, 23.2739267 ], [ 120.5218779, 23.2879061 ], [ 120.5260434, 23.2924052 ], [ 120.5225187, 23.3116872 ], [ 120.5399818, 23.3279161 ], [ 120.5337335, 23.3364323 ], [ 120.5156296, 23.343663 ], [ 120.5079394, 23.3430203 ], [ 120.5036137, 23.3512151 ], [ 120.5119447, 23.3552321 ], [ 120.5048954, 23.3688902 ], [ 120.4943214, 23.3695329 ], [ 120.4843883, 23.3794952 ], [ 120.499288, 23.3878507 ], [ 120.4901559, 23.3955635 ], [ 120.4794217, 23.3875294 ], [ 120.4733337, 23.3981344 ], [ 120.4382473, 23.4133993 ], [ 120.4305571, 23.4066506 ], [ 120.4081275, 23.4133993 ], [ 120.3810517, 23.4034369 ], [ 120.34949, 23.4013481 ], [ 120.333629, 23.3859225 ], [ 120.3110392, 23.3856012 ], [ 120.3110392, 23.3754782 ], [ 120.2929352, 23.3753175 ], [ 120.2858859, 23.3671227 ], [ 120.2860461, 23.350251 ], [ 120.276113, 23.3483228 ], [ 120.2656992, 23.3523399 ], [ 120.2671411, 23.34061 ], [ 120.2564069, 23.3311298 ], [ 120.2378224, 23.326952 ], [ 120.2208399, 23.2959403 ], [ 120.2041779, 23.2919232 ], [ 120.1884772, 23.3012428 ], [ 120.1806268, 23.2909591 ], [ 120.1710141, 23.3046171 ], [ 120.1485844, 23.3144188 ], [ 120.1485844, 23.3197213 ], [ 120.1181442, 23.340128 ], [ 120.115741, 23.3230956 ], [ 120.1027639, 23.2961009 ], [ 120.0977973, 23.2948155 ], [ 120.0873835, 23.2380945 ], [ 120.0817761, 23.2348809 ], [ 120.082417, 23.2101357 ], [ 120.0691194, 23.1845872 ], [ 120.0615894, 23.1434525 ], [ 120.0414027, 23.1140475 ], [ 120.0353147, 23.1011929 ], [ 120.0316298, 23.0733948 ], [ 120.0497338, 23.05813 ], [ 120.053739, 23.048007 ], [ 120.0625507, 23.0431865 ], [ 120.0744064, 23.0590941 ], [ 120.1010015, 23.084964 ], [ 120.1114153, 23.088017 ], [ 120.1489048, 23.0913913 ], [ 120.1626831, 23.0904272 ], [ 120.1639648, 23.0846426 ], [ 120.181588, 23.0775726 ], [ 120.1873557, 23.0831965 ], [ 120.2062607, 23.0770905 ], [ 120.222442, 23.0756444 ], [ 120.2378224, 23.0669675 ], [ 120.2469545, 23.0655214 ], [ 120.2411868, 23.0520241 ], [ 120.2253259, 23.0420617 ], [ 120.219398, 23.0285644 ], [ 120.2291709, 23.0104073 ], [ 120.2285301, 23.0018911 ], [ 120.2399051, 22.9985167 ], [ 120.2477555, 22.9906433 ], [ 120.2490372, 22.9769853 ], [ 120.2389439, 22.9800382 ], [ 120.2378224, 22.9610777 ], [ 120.2165142, 22.960435 ], [ 120.2166744, 22.9451701 ], [ 120.2012941, 22.9448488 ], [ 120.1920018, 22.9212284 ], [ 120.2201991, 22.9096593 ], [ 120.2317343, 22.9154438 ], [ 120.2331762, 22.9053208 ], [ 120.2429492, 22.9035533 ], [ 120.2540038, 22.8942337 ], [ 120.2600918, 22.9017858 ], [ 120.2740302, 22.8951978 ], [ 120.2780355, 22.9045174 ], [ 120.3145638, 22.8996969 ], [ 120.3241765, 22.9003397 ], [ 120.3325075, 22.8892526 ], [ 120.3509319, 22.8890919 ], [ 120.3624671, 22.9019465 ], [ 120.3724003, 22.9077311 ], [ 120.3805711, 22.9201036 ], [ 120.3985148, 22.9225139 ], [ 120.4087683, 22.9123909 ], [ 120.4164585, 22.9164079 ], [ 120.4329603, 22.9560965 ], [ 120.4449762, 22.9795562 ], [ 120.453147, 22.9785921 ], [ 120.4603565, 23.0033372 ], [ 120.4784605, 23.0034979 ], [ 120.482626, 23.0155491 ], [ 120.5037739, 23.0287251 ], [ 120.542385, 23.0634325 ], [ 120.5531192, 23.0679316 ], [ 120.5747477, 23.0913913 ], [ 120.5741069, 23.0946049 ], [ 120.5882055, 23.1142082 ], [ 120.588526, 23.1233671 ], [ 120.6010225, 23.1440952 ], [ 120.6117567, 23.1516473 ], [ 120.616563, 23.1630557 ], [ 120.6306617, 23.1701258 ], [ 120.6399539, 23.182659 ], [ 120.6365895, 23.1903718 ], [ 120.6433184, 23.2032264 ], [ 120.6562955, 23.2178485 ], [ 120.6535719, 23.2245972 ] ] ] } },
{ "type": "Feature", "properties": { "COUNTYSN": "10021001", "COUNTYNAME": "台南市" }, "geometry": { "type": "Polygon", "coordinates": [ [ [ 120.0625507, 23.0431865 ], [ 120.07713, 23.038366 ], [ 120.1109347, 23.01812 ], [ 120.1378502, 22.9980347 ], [ 120.156595, 22.9784314 ], [ 120.1721356, 22.9474197 ], [ 120.1756602, 22.9318335 ], [ 120.1750194, 22.9117481 ], [ 120.1920018, 22.9212284 ], [ 120.2012941, 22.9448488 ], [ 120.2166744, 22.9451701 ], [ 120.2165142, 22.960435 ], [ 120.2378224, 22.9610777 ], [ 120.2389439, 22.9800382 ], [ 120.2490372, 22.9769853 ], [ 120.2477555, 22.9906433 ], [ 120.2399051, 22.9985167 ], [ 120.2285301, 23.0018911 ], [ 120.2291709, 23.0104073 ], [ 120.219398, 23.0285644 ], [ 120.2253259, 23.0420617 ], [ 120.2411868, 23.0520241 ], [ 120.2469545, 23.0655214 ], [ 120.2378224, 23.0669675 ], [ 120.222442, 23.0756444 ], [ 120.2062607, 23.0770905 ], [ 120.1873557, 23.0831965 ], [ 120.181588, 23.0775726 ], [ 120.1639648, 23.0846426 ], [ 120.1626831, 23.0904272 ], [ 120.1489048, 23.0913913 ], [ 120.1114153, 23.088017 ], [ 120.1010015, 23.084964 ], [ 120.0744064, 23.0590941 ], [ 120.0625507, 23.0431865 ] ] ] } },
{ "type": "Feature", "properties": { "COUNTYSN": "10006003", "COUNTYNAME": "台中縣" }, "geometry": { "type": "Polygon", "coordinates": [ [ [ 120.6212092, 24.4409646 ], [ 120.6080718, 24.4216827 ], [ 120.5950946, 24.4094708 ], [ 120.5870841, 24.3919564 ], [ 120.5592072, 24.3540353 ], [ 120.5516773, 24.3336286 ], [ 120.5497547, 24.3154714 ], [ 120.542385, 24.3061519 ], [ 120.5281261, 24.3138646 ], [ 120.5188338, 24.2985998 ], [ 120.510663, 24.2924938 ], [ 120.4983267, 24.2638923 ], [ 120.4906366, 24.2552155 ], [ 120.4765379, 24.2242037 ], [ 120.4682069, 24.2124739 ], [ 120.4885538, 24.2057252 ], [ 120.4858302, 24.1973697 ], [ 120.5079394, 24.1872467 ], [ 120.5257229, 24.1490043 ], [ 120.5236402, 24.139524 ], [ 120.5327723, 24.126348 ], [ 120.5497547, 24.1138148 ], [ 120.5728252, 24.1081909 ], [ 120.6125577, 24.102567 ], [ 120.6152813, 24.0839278 ], [ 120.6253747, 24.068663 ], [ 120.6234521, 24.051952 ], [ 120.6280983, 24.0382939 ], [ 120.6446001, 24.0259214 ], [ 120.6558149, 24.0305812 ], [ 120.6787252, 24.0140309 ], [ 120.7064418, 24.0051933 ], [ 120.7192588, 24.0096924 ], [ 120.7317553, 24.008889 ], [ 120.7460141, 23.9984447 ], [ 120.7706868, 24.0090497 ], [ 120.7714878, 24.0143522 ], [ 120.7846252, 24.0239932 ], [ 120.8036904, 24.0533981 ], [ 120.807215, 24.0644852 ], [ 120.8293243, 24.0713946 ], [ 120.8285232, 24.0943722 ], [ 120.8363736, 24.1170284 ], [ 120.8448648, 24.1245805 ], [ 120.8539969, 24.1242591 ], [ 120.8573613, 24.1171891 ], [ 120.8724212, 24.1168677 ], [ 120.8815533, 24.1004781 ], [ 120.8769072, 24.0911585 ], [ 120.8820339, 24.0882662 ], [ 120.8913262, 24.0977465 ], [ 120.8950111, 24.1165464 ], [ 120.9196837, 24.1073875 ], [ 120.9325006, 24.1125293 ], [ 120.9498035, 24.1277942 ], [ 120.9613388, 24.1200814 ], [ 120.975117, 24.1168677 ], [ 120.9920994, 24.1210455 ], [ 120.9996294, 24.1279548 ], [ 121.0122861, 24.1543068 ], [ 121.0198161, 24.15977 ], [ 121.0473725, 24.1608948 ], [ 121.0523391, 24.1555922 ], [ 121.0593884, 24.1637871 ], [ 121.0845416, 24.1766417 ], [ 121.0955962, 24.1925492 ], [ 121.1053692, 24.1981731 ], [ 121.1356492, 24.1968877 ], [ 121.1479855, 24.2137594 ], [ 121.1609626, 24.2158482 ], [ 121.1675313, 24.2259712 ], [ 121.1817902, 24.2126346 ], [ 121.1968501, 24.2237217 ], [ 121.2082251, 24.2222755 ], [ 121.2194399, 24.2296669 ], [ 121.2373837, 24.2201867 ], [ 121.2439523, 24.2229183 ], [ 121.2566091, 24.2449318 ], [ 121.2651003, 24.2460566 ], [ 121.2687852, 24.2381831 ], [ 121.28, 24.2303097 ], [ 121.2928169, 24.2296669 ], [ 121.2985846, 24.2362549 ], [ 121.3298259, 24.2315951 ], [ 121.3426428, 24.224043 ], [ 121.3519351, 24.2349695 ], [ 121.3520953, 24.244289 ], [ 121.3663541, 24.2524839 ], [ 121.3844581, 24.2553761 ], [ 121.3799721, 24.2799606 ], [ 121.4019212, 24.2961895 ], [ 121.4046448, 24.3088835 ], [ 121.4227487, 24.3090441 ], [ 121.4341237, 24.3230235 ], [ 121.4317205, 24.3300936 ], [ 121.4347646, 24.34809 ], [ 121.4410128, 24.3594985 ], [ 121.450946, 24.3654437 ], [ 121.4469407, 24.3755667 ], [ 121.4416537, 24.3737992 ], [ 121.4368473, 24.3834402 ], [ 121.3892644, 24.3757274 ], [ 121.3804528, 24.3673719 ], [ 121.3727626, 24.3686574 ], [ 121.363951, 24.3895461 ], [ 121.3544985, 24.3934025 ], [ 121.337516, 24.3903495 ], [ 121.326942, 24.398705 ], [ 121.326942, 24.4343766 ], [ 121.3166885, 24.441768 ], [ 121.3045124, 24.4327698 ], [ 121.268625, 24.4274672 ], [ 121.2594929, 24.4290741 ], [ 121.2450738, 24.4224861 ], [ 121.2428309, 24.4057751 ], [ 121.2340192, 24.3974196 ], [ 121.231616, 24.3844043 ], [ 121.2154346, 24.3794231 ], [ 121.2067832, 24.3979016 ], [ 121.1966899, 24.3966162 ], [ 121.1896405, 24.381512 ], [ 121.1728183, 24.3729958 ], [ 121.1676915, 24.3607839 ], [ 121.1409362, 24.3596592 ], [ 121.1247548, 24.3418234 ], [ 121.1210699, 24.3305756 ], [ 121.1084132, 24.330897 ], [ 121.0939941, 24.3196492 ], [ 121.0861437, 24.317721 ], [ 121.0811772, 24.3239876 ], [ 121.0550627, 24.3101689 ], [ 121.0520186, 24.2995639 ], [ 121.0451295, 24.2953861 ], [ 121.0342351, 24.2976357 ], [ 121.0175731, 24.3119364 ], [ 121.0047562, 24.3318611 ], [ 120.991779, 24.3296115 ], [ 120.9820061, 24.3358781 ], [ 120.972073, 24.3334679 ], [ 120.9566926, 24.3390918 ], [ 120.9357049, 24.3427875 ], [ 120.9163193, 24.3345927 ], [ 120.9219267, 24.3024562 ], [ 120.9044636, 24.2921725 ], [ 120.8748244, 24.2949041 ], [ 120.8575215, 24.2891195 ], [ 120.8331693, 24.2907263 ], [ 120.806414, 24.3157928 ], [ 120.7838241, 24.3183637 ], [ 120.7628364, 24.3260765 ], [ 120.7304736, 24.3517857 ], [ 120.7072429, 24.357731 ], [ 120.6928238, 24.3672112 ], [ 120.6897798, 24.374442 ], [ 120.6772833, 24.3840829 ], [ 120.6582181, 24.4065785 ], [ 120.648285, 24.4099528 ], [ 120.6396335, 24.4277886 ], [ 120.6212092, 24.4409646 ] ], [ [ 120.7537043, 24.2192226 ], [ 120.7702061, 24.2156875 ], [ 120.7961604, 24.2039577 ], [ 120.8009668, 24.1970484 ], [ 120.7974421, 24.183551 ], [ 120.8027291, 24.169411 ], [ 120.7940777, 24.1657153 ], [ 120.7756533, 24.1684469 ], [ 120.7690846, 24.1600914 ], [ 120.7546656, 24.1580025 ], [ 120.7490582, 24.1621802 ], [ 120.7261479, 24.156717 ], [ 120.7062816, 24.1631443 ], [ 120.6995527, 24.1490043 ], [ 120.7128503, 24.1457906 ], [ 120.7040387, 24.1245805 ], [ 120.6888185, 24.1247412 ], [ 120.683852, 24.1189566 ], [ 120.6620632, 24.1110832 ], [ 120.6614223, 24.106584 ], [ 120.619607, 24.1147789 ], [ 120.618806, 24.1239378 ], [ 120.6000612, 24.1295617 ], [ 120.5747477, 24.1473974 ], [ 120.5848411, 24.169411 ], [ 120.5827583, 24.1731067 ], [ 120.5978182, 24.1894963 ], [ 120.5877249, 24.1927099 ], [ 120.5963763, 24.2140807 ], [ 120.6357884, 24.2039577 ], [ 120.651329, 24.2095816 ], [ 120.6647868, 24.2071714 ], [ 120.6647868, 24.2017082 ], [ 120.6968291, 24.2029936 ], [ 120.6939453, 24.1919065 ], [ 120.7011548, 24.187086 ], [ 120.7356004, 24.1941561 ], [ 120.7384842, 24.2020295 ], [ 120.7503399, 24.2046004 ], [ 120.7537043, 24.2192226 ] ] ] } },
{ "type": "Feature", "properties": { "COUNTYSN": "10019001", "COUNTYNAME": "台中市" }, "geometry": { "type": "Polygon", "coordinates": [ [ [ 120.7537043, 24.2192226 ], [ 120.7503399, 24.2046004 ], [ 120.7384842, 24.2020295 ], [ 120.7356004, 24.1941561 ], [ 120.7011548, 24.187086 ], [ 120.6939453, 24.1919065 ], [ 120.6968291, 24.2029936 ], [ 120.6647868, 24.2017082 ], [ 120.6647868, 24.2071714 ], [ 120.651329, 24.2095816 ], [ 120.6357884, 24.2039577 ], [ 120.5963763, 24.2140807 ], [ 120.5877249, 24.1927099 ], [ 120.5978182, 24.1894963 ], [ 120.5827583, 24.1731067 ], [ 120.5848411, 24.169411 ], [ 120.5747477, 24.1473974 ], [ 120.6000612, 24.1295617 ], [ 120.618806, 24.1239378 ], [ 120.619607, 24.1147789 ], [ 120.6614223, 24.106584 ], [ 120.6620632, 24.1110832 ], [ 120.683852, 24.1189566 ], [ 120.6888185, 24.1247412 ], [ 120.7040387, 24.1245805 ], [ 120.7128503, 24.1457906 ], [ 120.6995527, 24.1490043 ], [ 120.7062816, 24.1631443 ], [ 120.7261479, 24.156717 ], [ 120.7490582, 24.1621802 ], [ 120.7546656, 24.1580025 ], [ 120.7690846, 24.1600914 ], [ 120.7756533, 24.1684469 ], [ 120.7940777, 24.1657153 ], [ 120.8027291, 24.169411 ], [ 120.7974421, 24.183551 ], [ 120.8009668, 24.1970484 ], [ 120.7961604, 24.2039577 ], [ 120.7702061, 24.2156875 ], [ 120.7537043, 24.2192226 ] ] ] } },
{ "type": "Feature", "properties": { "COUNTYSN": "10013002", "COUNTYNAME": "屏東縣" }, "geometry": { "type": "Polygon", "coordinates": [ [ [ 120.3587823, 22.3217216 ], [ 120.3874602, 22.3424496 ], [ 120.3889021, 22.3501624 ], [ 120.3810517, 22.3553042 ], [ 120.3671133, 22.3516085 ], [ 120.3632682, 22.3400394 ], [ 120.3530146, 22.3249352 ], [ 120.3587823, 22.3217216 ] ] ] } },
{ "type": "Feature", "properties": { "COUNTYSN": "10013005", "COUNTYNAME": "屏東縣" }, "geometry": { "type": "Polygon", "coordinates": [ [ [ 120.4239885, 22.4771017 ], [ 120.4436945, 22.4673 ], [ 120.4387279, 22.4636043 ], [ 120.4520255, 22.4480181 ], [ 120.4709305, 22.4361276 ], [ 120.548473, 22.3961176 ], [ 120.5776316, 22.3771571 ], [ 120.592371, 22.3647845 ], [ 120.605989, 22.3410035 ], [ 120.6305014, 22.31899 ], [ 120.6426775, 22.3026003 ], [ 120.6431582, 22.2915132 ], [ 120.6524505, 22.2677322 ], [ 120.6506881, 22.2529494 ], [ 120.670234, 22.2360777 ], [ 120.6865756, 22.2065121 ], [ 120.683852, 22.1983173 ], [ 120.6933045, 22.178232 ], [ 120.700514, 22.1489878 ], [ 120.6979506, 22.1440066 ], [ 120.702757, 22.1306699 ], [ 120.7099665, 22.1237606 ], [ 120.7168556, 22.0932309 ], [ 120.7013151, 22.0861609 ], [ 120.7070827, 22.0618978 ], [ 120.6976302, 22.0549884 ], [ 120.6953872, 22.0418125 ], [ 120.6872164, 22.0328142 ], [ 120.6872164, 22.0206024 ], [ 120.6990721, 21.9982675 ], [ 120.706602, 21.9956966 ], [ 120.7158943, 21.9727189 ], [ 120.7128503, 21.9656489 ], [ 120.7114084, 21.9341551 ], [ 120.7271091, 21.9187296 ], [ 120.7396057, 21.9198544 ], [ 120.7468152, 21.9341551 ], [ 120.743611, 21.9444388 ], [ 120.7540247, 21.95649 ], [ 120.766361, 21.9589002 ], [ 120.7823822, 21.9444388 ], [ 120.7982432, 21.9418679 ], [ 120.8126622, 21.9335124 ], [ 120.8221147, 21.9346372 ], [ 120.834451, 21.9187296 ], [ 120.8471078, 21.912945 ], [ 120.8483895, 21.9008938 ], [ 120.860886, 21.8967161 ], [ 120.8664934, 21.9008938 ], [ 120.8615268, 21.9171228 ], [ 120.8410197, 21.94942 ], [ 120.8458261, 21.9881445 ], [ 120.8618473, 21.9921615 ], [ 120.8748244, 21.9995529 ], [ 120.8767469, 22.0116041 ], [ 120.8871607, 22.017228 ], [ 120.888122, 22.0262262 ], [ 120.9007787, 22.0344211 ], [ 120.8937294, 22.0479184 ], [ 120.8914864, 22.0863215 ], [ 120.898696, 22.094195 ], [ 120.8999777, 22.1057641 ], [ 120.893409, 22.1083351 ], [ 120.8857188, 22.1327588 ], [ 120.8970938, 22.1433639 ], [ 120.891166, 22.1480237 ], [ 120.8938896, 22.1772679 ], [ 120.8906854, 22.1959071 ], [ 120.896453, 22.2034592 ], [ 120.8938896, 22.2179206 ], [ 120.8993368, 22.2339889 ], [ 120.8962928, 22.2463614 ], [ 120.8804318, 22.2344709 ], [ 120.8663332, 22.2298111 ], [ 120.858643, 22.2407375 ], [ 120.8394176, 22.2436298 ], [ 120.8153858, 22.2632331 ], [ 120.7996851, 22.2571272 ], [ 120.798083, 22.2764091 ], [ 120.7899122, 22.2934414 ], [ 120.7777361, 22.2979405 ], [ 120.7780565, 22.3085456 ], [ 120.7931164, 22.3125627 ], [ 120.7964808, 22.3197934 ], [ 120.792796, 22.3347369 ], [ 120.7851058, 22.3455026 ], [ 120.7673223, 22.3475915 ], [ 120.7629966, 22.3591606 ], [ 120.752743, 22.3602854 ], [ 120.7434507, 22.3673554 ], [ 120.7487377, 22.3805314 ], [ 120.7564279, 22.3885655 ], [ 120.7522624, 22.3924219 ], [ 120.7577096, 22.4047945 ], [ 120.7645987, 22.4088116 ], [ 120.779979, 22.4092936 ], [ 120.7895917, 22.4176491 ], [ 120.7750125, 22.443519 ], [ 120.7764544, 22.4494643 ], [ 120.7581902, 22.4586232 ], [ 120.7514613, 22.4584625 ], [ 120.7543452, 22.4724419 ], [ 120.7508205, 22.4791905 ], [ 120.7637976, 22.4910811 ], [ 120.7626762, 22.5008827 ], [ 120.7537043, 22.5110057 ], [ 120.7500194, 22.5339833 ], [ 120.7394455, 22.5514977 ], [ 120.7415282, 22.5686908 ], [ 120.7487377, 22.5720651 ], [ 120.7458539, 22.5895795 ], [ 120.7548258, 22.6019521 ], [ 120.7529032, 22.611593 ], [ 120.7615547, 22.6302322 ], [ 120.7863875, 22.6630114 ], [ 120.7913541, 22.6787583 ], [ 120.7867079, 22.6928984 ], [ 120.8080161, 22.6892027 ], [ 120.8203524, 22.6957907 ], [ 120.8349317, 22.6965941 ], [ 120.8485497, 22.7170008 ], [ 120.8837963, 22.7173222 ], [ 120.8948509, 22.7377289 ], [ 120.8932488, 22.7664911 ], [ 120.9038227, 22.77565 ], [ 120.9031819, 22.8000737 ], [ 120.891166, 22.8116429 ], [ 120.8685761, 22.8169454 ], [ 120.861687, 22.8265863 ], [ 120.8647311, 22.8431367 ], [ 120.8531958, 22.8575981 ], [ 120.8477486, 22.8518135 ], [ 120.8370144, 22.8641861 ], [ 120.8224352, 22.8653109 ], [ 120.8009668, 22.8510101 ], [ 120.793597, 22.8521349 ], [ 120.7926358, 22.8410478 ], [ 120.7783769, 22.8352632 ], [ 120.7551462, 22.8646681 ], [ 120.7426497, 22.8735057 ], [ 120.7250264, 22.8807364 ], [ 120.705801, 22.8812184 ], [ 120.6904207, 22.8648288 ], [ 120.6790456, 22.8629006 ], [ 120.6726371, 22.8564733 ], [ 120.6611019, 22.859687 ], [ 120.6580579, 22.8797723 ], [ 120.6484452, 22.8770407 ], [ 120.6449205, 22.8852355 ], [ 120.6202479, 22.8755945 ], [ 120.6053482, 22.8730236 ], [ 120.5744273, 22.8477965 ], [ 120.5532794, 22.8283539 ], [ 120.52348, 22.832853 ], [ 120.5100222, 22.8285145 ], [ 120.4762175, 22.8381555 ], [ 120.4686876, 22.8306034 ], [ 120.4640414, 22.8002344 ], [ 120.4537879, 22.7693833 ], [ 120.4557104, 22.7186076 ], [ 120.4510643, 22.6978796 ], [ 120.442573, 22.6843822 ], [ 120.4366452, 22.6651003 ], [ 120.4358441, 22.6303929 ], [ 120.433441, 22.6233228 ], [ 120.4379269, 22.6067725 ], [ 120.4451364, 22.6003452 ], [ 120.447059, 22.5858838 ], [ 120.4427332, 22.5624241 ], [ 120.4366452, 22.5476413 ], [ 120.4308776, 22.5439456 ], [ 120.422867, 22.5183971 ], [ 120.4257508, 22.4981511 ], [ 120.4239885, 22.4771017 ] ] ] } },
{ "type": "Feature", "properties": { "COUNTYSN": "10008001", "COUNTYNAME": "南投縣" }, "geometry": { "type": "Polygon", "coordinates": [ [ [ 121.3426428, 24.224043 ], [ 121.3298259, 24.2315951 ], [ 121.2985846, 24.2362549 ], [ 121.2928169, 24.2296669 ], [ 121.28, 24.2303097 ], [ 121.2687852, 24.2381831 ], [ 121.2651003, 24.2460566 ], [ 121.2566091, 24.2449318 ], [ 121.2439523, 24.2229183 ], [ 121.2373837, 24.2201867 ], [ 121.2194399, 24.2296669 ], [ 121.2082251, 24.2222755 ], [ 121.1968501, 24.2237217 ], [ 121.1817902, 24.2126346 ], [ 121.1675313, 24.2259712 ], [ 121.1609626, 24.2158482 ], [ 121.1479855, 24.2137594 ], [ 121.1356492, 24.1968877 ], [ 121.1053692, 24.1981731 ], [ 121.0955962, 24.1925492 ], [ 121.0845416, 24.1766417 ], [ 121.0593884, 24.1637871 ], [ 121.0523391, 24.1555922 ], [ 121.0473725, 24.1608948 ], [ 121.0198161, 24.15977 ], [ 121.0122861, 24.1543068 ], [ 120.9996294, 24.1279548 ], [ 120.9920994, 24.1210455 ], [ 120.975117, 24.1168677 ], [ 120.9613388, 24.1200814 ], [ 120.9498035, 24.1277942 ], [ 120.9325006, 24.1125293 ], [ 120.9196837, 24.1073875 ], [ 120.8950111, 24.1165464 ], [ 120.8913262, 24.0977465 ], [ 120.8820339, 24.0882662 ], [ 120.8769072, 24.0911585 ], [ 120.8815533, 24.1004781 ], [ 120.8724212, 24.1168677 ], [ 120.8573613, 24.1171891 ], [ 120.8539969, 24.1242591 ], [ 120.8448648, 24.1245805 ], [ 120.8363736, 24.1170284 ], [ 120.8285232, 24.0943722 ], [ 120.8293243, 24.0713946 ], [ 120.807215, 24.0644852 ], [ 120.8036904, 24.0533981 ], [ 120.7846252, 24.0239932 ], [ 120.7714878, 24.0143522 ], [ 120.7706868, 24.0090497 ], [ 120.7460141, 23.9984447 ], [ 120.7317553, 24.008889 ], [ 120.7192588, 24.0096924 ], [ 120.7064418, 24.0051933 ], [ 120.6787252, 24.0140309 ], [ 120.6724769, 24.0058361 ], [ 120.6423571, 24.008889 ], [ 120.6375508, 23.9936242 ], [ 120.6498871, 23.9852687 ], [ 120.646843, 23.9634158 ], [ 120.6353078, 23.9523287 ], [ 120.6272972, 23.9520074 ], [ 120.6364293, 23.9375459 ], [ 120.62938, 23.9296725 ], [ 120.6370701, 23.9245306 ], [ 120.6319434, 23.9033205 ], [ 120.6349874, 23.8986607 ], [ 120.6200877, 23.8655601 ], [ 120.6266564, 23.8583294 ], [ 120.618806, 23.8417791 ], [ 120.6264962, 23.840815 ], [ 120.6365895, 23.8247467 ], [ 120.6519698, 23.8125349 ], [ 120.6743995, 23.8200869 ], [ 120.6790456, 23.8059469 ], [ 120.6665491, 23.7935743 ], [ 120.6402744, 23.7860222 ], [ 120.6554945, 23.7554925 ], [ 120.6558149, 23.7354072 ], [ 120.6402744, 23.7309081 ], [ 120.6391529, 23.7106621 ], [ 120.6479645, 23.6831854 ], [ 120.6470033, 23.6729017 ], [ 120.6349874, 23.6518523 ], [ 120.6290595, 23.6351413 ], [ 120.6338659, 23.6192337 ], [ 120.6449205, 23.6311242 ], [ 120.6530913, 23.6295174 ], [ 120.6516494, 23.6163414 ], [ 120.6614223, 23.6102355 ], [ 120.6835315, 23.6107175 ], [ 120.6915421, 23.6201978 ], [ 120.7051601, 23.6171448 ], [ 120.7186179, 23.6299994 ], [ 120.7306338, 23.6184303 ], [ 120.730794, 23.6107175 ], [ 120.7546656, 23.6144132 ], [ 120.763317, 23.612485 ], [ 120.7774156, 23.6025227 ], [ 120.8036904, 23.5967381 ], [ 120.8137837, 23.6009159 ], [ 120.8254792, 23.5864544 ], [ 120.8195513, 23.575046 ], [ 120.8206728, 23.5625127 ], [ 120.8141041, 23.5562461 ], [ 120.8086569, 23.5358394 ], [ 120.8203524, 23.521378 ], [ 120.8270813, 23.4831355 ], [ 120.8394176, 23.471245 ], [ 120.8634494, 23.4734946 ], [ 120.8804318, 23.4675493 ], [ 120.8871607, 23.4755834 ], [ 120.9177612, 23.4755834 ], [ 120.9315394, 23.4706023 ], [ 120.937307, 23.4731732 ], [ 120.9474003, 23.4670672 ], [ 120.9576539, 23.4694775 ], [ 120.970631, 23.4689954 ], [ 120.9997896, 23.4620861 ], [ 121.00764, 23.4627288 ], [ 121.0158108, 23.4516417 ], [ 121.0103636, 23.4458571 ], [ 121.0151699, 23.4352521 ], [ 121.0345555, 23.4456965 ], [ 121.051538, 23.4508383 ], [ 121.0589077, 23.4619254 ], [ 121.0392017, 23.4741373 ], [ 121.0534605, 23.4877953 ], [ 121.0526595, 23.4935799 ], [ 121.062112, 23.4993645 ], [ 121.0685204, 23.5184857 ], [ 121.0920716, 23.5146293 ], [ 121.0973586, 23.5216993 ], [ 121.1036068, 23.5189677 ], [ 121.1202688, 23.5210566 ], [ 121.1356492, 23.515272 ], [ 121.1470242, 23.5271625 ], [ 121.1510295, 23.5453197 ], [ 121.1462232, 23.5546393 ], [ 121.1571176, 23.5594597 ], [ 121.160482, 23.5695828 ], [ 121.1518306, 23.5742425 ], [ 121.1534327, 23.5867758 ], [ 121.1789064, 23.5835621 ], [ 121.1797074, 23.5899894 ], [ 121.1941265, 23.6005945 ], [ 121.206623, 23.5959347 ], [ 121.2135121, 23.6005945 ], [ 121.2173572, 23.6147346 ], [ 121.2248871, 23.6271071 ], [ 121.2240861, 23.6386763 ], [ 121.2357815, 23.662618 ], [ 121.2324171, 23.6770794 ], [ 121.2394664, 23.6868811 ], [ 121.2410685, 23.7092159 ], [ 121.2288924, 23.7447268 ], [ 121.2064628, 23.7625626 ], [ 121.2047005, 23.7723642 ], [ 121.2284118, 23.7852188 ], [ 121.2274505, 23.8081964 ], [ 121.2344998, 23.8120528 ], [ 121.2393062, 23.840333 ], [ 121.2489189, 23.8520628 ], [ 121.2530844, 23.8679704 ], [ 121.2651003, 23.8727908 ], [ 121.2683045, 23.8833959 ], [ 121.261095, 23.9026778 ], [ 121.2759947, 23.9097478 ], [ 121.2764753, 23.9226025 ], [ 121.2719894, 23.9381887 ], [ 121.2779172, 23.9658261 ], [ 121.2737517, 23.974985 ], [ 121.2647799, 23.9753064 ], [ 121.261095, 23.9941062 ], [ 121.2700669, 24.0068001 ], [ 121.2764753, 24.0243146 ], [ 121.2854472, 24.039258 ], [ 121.2832042, 24.0540408 ], [ 121.2957007, 24.0638425 ], [ 121.2990652, 24.0615929 ], [ 121.3081973, 24.0733227 ], [ 121.323097, 24.0848919 ], [ 121.3190917, 24.0951756 ], [ 121.3258206, 24.102567 ], [ 121.3285442, 24.1142968 ], [ 121.3162079, 24.1163857 ], [ 121.2953803, 24.1326146 ], [ 121.2814419, 24.1355069 ], [ 121.288331, 24.1576811 ], [ 121.2864085, 24.1774451 ], [ 121.3059543, 24.1801767 ], [ 121.3251797, 24.1959236 ], [ 121.3493717, 24.2010654 ], [ 121.3490513, 24.2108671 ], [ 121.3426428, 24.224043 ] ] ] } },
{ "type": "Feature", "properties": { "COUNTYSN": "10005003", "COUNTYNAME": "苗栗縣" }, "geometry": { "type": "Polygon", "coordinates": [ [ [ 121.2594929, 24.4290741 ], [ 121.258051, 24.4409646 ], [ 121.2625369, 24.4552653 ], [ 121.258051, 24.4632995 ], [ 121.244433, 24.4700481 ], [ 121.2346601, 24.4877232 ], [ 121.2186389, 24.4983283 ], [ 121.2234452, 24.506041 ], [ 121.2008554, 24.5115042 ], [ 121.1865965, 24.5053983 ], [ 121.1779451, 24.5076479 ], [ 121.1691334, 24.5026667 ], [ 121.1502285, 24.5063624 ], [ 121.1451017, 24.5119863 ], [ 121.1369309, 24.5066838 ], [ 121.1237935, 24.5100581 ], [ 121.09848, 24.4965608 ], [ 121.086304, 24.5010599 ], [ 121.0718849, 24.4983283 ], [ 121.0669183, 24.522752 ], [ 121.0782934, 24.528858 ], [ 121.0803761, 24.5412305 ], [ 121.0627528, 24.5574595 ], [ 121.0706032, 24.5634047 ], [ 121.0754096, 24.5810798 ], [ 121.0830997, 24.590078 ], [ 121.0736472, 24.6132163 ], [ 121.0624324, 24.6217325 ], [ 121.0533003, 24.6154659 ], [ 121.043207, 24.6271957 ], [ 121.0294288, 24.6328196 ], [ 121.0252633, 24.6411751 ], [ 121.0081206, 24.6443888 ], [ 121.0103636, 24.6562793 ], [ 120.997066, 24.6546724 ], [ 120.9771997, 24.6742757 ], [ 120.9763987, 24.6832739 ], [ 120.9658247, 24.6848808 ], [ 120.9739955, 24.696932 ], [ 120.9717525, 24.7125182 ], [ 120.9550905, 24.7044841 ], [ 120.9498035, 24.711072 ], [ 120.9353845, 24.7126789 ], [ 120.9159988, 24.7205523 ], [ 120.9059055, 24.7406376 ], [ 120.8910058, 24.7318001 ], [ 120.8785093, 24.7351744 ], [ 120.8653719, 24.7239267 ], [ 120.858643, 24.7003063 ], [ 120.8338102, 24.6805423 ], [ 120.8286834, 24.6696159 ], [ 120.8161869, 24.6689732 ], [ 120.7802995, 24.6609391 ], [ 120.7617149, 24.6395683 ], [ 120.7593117, 24.6140197 ], [ 120.7370423, 24.6119309 ], [ 120.7261479, 24.6082352 ], [ 120.7112482, 24.5859003 ], [ 120.7061214, 24.5680645 ], [ 120.6968291, 24.5500681 ], [ 120.6870562, 24.5230734 ], [ 120.6716759, 24.5000958 ], [ 120.6665491, 24.4843489 ], [ 120.632424, 24.4478739 ], [ 120.6212092, 24.4409646 ], [ 120.6396335, 24.4277886 ], [ 120.648285, 24.4099528 ], [ 120.6582181, 24.4065785 ], [ 120.6772833, 24.3840829 ], [ 120.6897798, 24.374442 ], [ 120.6928238, 24.3672112 ], [ 120.7072429, 24.357731 ], [ 120.7304736, 24.3517857 ], [ 120.7628364, 24.3260765 ], [ 120.7838241, 24.3183637 ], [ 120.806414, 24.3157928 ], [ 120.8331693, 24.2907263 ], [ 120.8575215, 24.2891195 ], [ 120.8748244, 24.2949041 ], [ 120.9044636, 24.2921725 ], [ 120.9219267, 24.3024562 ], [ 120.9163193, 24.3345927 ], [ 120.9357049, 24.3427875 ], [ 120.9566926, 24.3390918 ], [ 120.972073, 24.3334679 ], [ 120.9820061, 24.3358781 ], [ 120.991779, 24.3296115 ], [ 121.0047562, 24.3318611 ], [ 121.0175731, 24.3119364 ], [ 121.0342351, 24.2976357 ], [ 121.0451295, 24.2953861 ], [ 121.0520186, 24.2995639 ], [ 121.0550627, 24.3101689 ], [ 121.0811772, 24.3239876 ], [ 121.0861437, 24.317721 ], [ 121.0939941, 24.3196492 ], [ 121.1084132, 24.330897 ], [ 121.1210699, 24.3305756 ], [ 121.1247548, 24.3418234 ], [ 121.1409362, 24.3596592 ], [ 121.1676915, 24.3607839 ], [ 121.1728183, 24.3729958 ], [ 121.1896405, 24.381512 ], [ 121.1966899, 24.3966162 ], [ 121.2067832, 24.3979016 ], [ 121.2154346, 24.3794231 ], [ 121.231616, 24.3844043 ], [ 121.2340192, 24.3974196 ], [ 121.2428309, 24.4057751 ], [ 121.2450738, 24.4224861 ], [ 121.2594929, 24.4290741 ] ] ] } },
{ "type": "Feature", "properties": { "COUNTYSN": "10017005", "COUNTYNAME": "基隆市" }, "geometry": { "type": "Polygon", "coordinates": [ [ [ 121.8032517, 25.1357562 ], [ 121.7822639, 25.151021 ], [ 121.7748942, 25.1524672 ], [ 121.7631987, 25.163715 ], [ 121.7478184, 25.1563236 ], [ 121.7250683, 25.1650004 ], [ 121.7072848, 25.1648397 ], [ 121.7088869, 25.1754448 ], [ 121.6776456, 25.1556808 ], [ 121.65826, 25.1523065 ], [ 121.6494484, 25.1449151 ], [ 121.6345487, 25.143951 ], [ 121.6294219, 25.1339887 ], [ 121.6432001, 25.1277221 ], [ 121.6489677, 25.1020128 ], [ 121.6556966, 25.0934967 ], [ 121.6992742, 25.0674661 ], [ 121.7124116, 25.0679481 ], [ 121.7321176, 25.0526833 ], [ 121.7433325, 25.0525226 ], [ 121.7591934, 25.0594319 ], [ 121.7623977, 25.0570217 ], [ 121.7756952, 25.070037 ], [ 121.7615966, 25.0783925 ], [ 121.7559892, 25.1084401 ], [ 121.7729716, 25.12017 ], [ 121.7897939, 25.1124572 ], [ 121.7978045, 25.1143854 ], [ 121.8048538, 25.1249905 ], [ 121.8032517, 25.1357562 ] ] ] } },
{ "type": "Feature", "properties": { "COUNTYSN": "10012001", "COUNTYNAME": "高雄縣" }, "geometry": { "type": "Polygon", "coordinates": [ [ [ 120.4239885, 22.4771017 ], [ 120.4257508, 22.4981511 ], [ 120.422867, 22.5183971 ], [ 120.4308776, 22.5439456 ], [ 120.4366452, 22.5476413 ], [ 120.4427332, 22.5624241 ], [ 120.447059, 22.5858838 ], [ 120.4451364, 22.6003452 ], [ 120.4379269, 22.6067725 ], [ 120.433441, 22.6233228 ], [ 120.4358441, 22.6303929 ], [ 120.4366452, 22.6651003 ], [ 120.442573, 22.6843822 ], [ 120.4510643, 22.6978796 ], [ 120.4557104, 22.7186076 ], [ 120.4537879, 22.7693833 ], [ 120.4640414, 22.8002344 ], [ 120.4686876, 22.8306034 ], [ 120.4762175, 22.8381555 ], [ 120.5100222, 22.8285145 ], [ 120.52348, 22.832853 ], [ 120.5532794, 22.8283539 ], [ 120.5744273, 22.8477965 ], [ 120.6053482, 22.8730236 ], [ 120.6202479, 22.8755945 ], [ 120.6449205, 22.8852355 ], [ 120.6484452, 22.8770407 ], [ 120.6580579, 22.8797723 ], [ 120.6611019, 22.859687 ], [ 120.6726371, 22.8564733 ], [ 120.6790456, 22.8629006 ], [ 120.6904207, 22.8648288 ], [ 120.705801, 22.8812184 ], [ 120.7250264, 22.8807364 ], [ 120.7426497, 22.8735057 ], [ 120.7551462, 22.8646681 ], [ 120.7783769, 22.8352632 ], [ 120.7926358, 22.8410478 ], [ 120.793597, 22.8521349 ], [ 120.8009668, 22.8510101 ], [ 120.8224352, 22.8653109 ], [ 120.8370144, 22.8641861 ], [ 120.8477486, 22.8518135 ], [ 120.8531958, 22.8575981 ], [ 120.8647311, 22.8431367 ], [ 120.8690568, 22.8582408 ], [ 120.8592839, 22.863222 ], [ 120.8648913, 22.8723809 ], [ 120.8597645, 22.8781655 ], [ 120.841981, 22.8812184 ], [ 120.8286834, 22.9041961 ], [ 120.8333296, 22.9122302 ], [ 120.8217943, 22.9352078 ], [ 120.8245179, 22.9517581 ], [ 120.8209932, 22.960917 ], [ 120.8301253, 22.9700759 ], [ 120.8322081, 22.9800382 ], [ 120.8605656, 23.007997 ], [ 120.8610462, 23.0296892 ], [ 120.8796308, 23.0346703 ], [ 120.8812329, 23.0441506 ], [ 120.869217, 23.0597368 ], [ 120.8855586, 23.0889811 ], [ 120.8894037, 23.1100305 ], [ 120.885078, 23.1198321 ], [ 120.8879618, 23.1367038 ], [ 120.8764265, 23.1513259 ], [ 120.8950111, 23.1606455 ], [ 120.8983755, 23.176071 ], [ 120.9092699, 23.1797667 ], [ 120.9124742, 23.1866761 ], [ 120.9065463, 23.1964777 ], [ 120.9116731, 23.2091717 ], [ 120.9116731, 23.2284536 ], [ 120.9158386, 23.2379338 ], [ 120.9262524, 23.2445218 ], [ 120.9379478, 23.2451646 ], [ 120.9709515, 23.2811575 ], [ 120.9860114, 23.280354 ], [ 121.0105238, 23.2927266 ], [ 121.0283073, 23.297065 ], [ 121.0323126, 23.3038137 ], [ 121.0464112, 23.3091162 ], [ 121.0488144, 23.3253452 ], [ 121.0246224, 23.3399673 ], [ 121.0199763, 23.3504117 ], [ 121.0098829, 23.3460732 ], [ 121.0009111, 23.3561962 ], [ 120.9871329, 23.3587672 ], [ 120.9880941, 23.3706577 ], [ 121.00764, 23.3867259 ], [ 121.0267052, 23.4060079 ], [ 121.0291083, 23.4227188 ], [ 121.0151699, 23.4352521 ], [ 121.0103636, 23.4458571 ], [ 121.0158108, 23.4516417 ], [ 121.00764, 23.4627288 ], [ 120.9997896, 23.4620861 ], [ 120.970631, 23.4689954 ], [ 120.9576539, 23.4694775 ], [ 120.9483616, 23.464175 ], [ 120.9366662, 23.4636929 ], [ 120.9268932, 23.4558195 ], [ 120.9129548, 23.4585511 ], [ 120.9004583, 23.454052 ], [ 120.8860392, 23.43477 ], [ 120.8645709, 23.4238436 ], [ 120.8495109, 23.4201479 ], [ 120.8493507, 23.4121138 ], [ 120.8307662, 23.3862439 ], [ 120.8286834, 23.3751568 ], [ 120.8048119, 23.3672833 ], [ 120.7884703, 23.3528219 ], [ 120.7831833, 23.3422169 ], [ 120.7596321, 23.344145 ], [ 120.7588311, 23.3364323 ], [ 120.7480969, 23.3221315 ], [ 120.7301532, 23.3110444 ], [ 120.7306338, 23.3055812 ], [ 120.7122095, 23.3086342 ], [ 120.7037182, 23.3004394 ], [ 120.703558, 23.2891916 ], [ 120.6936249, 23.2845318 ], [ 120.6713554, 23.289995 ], [ 120.6580579, 23.2959403 ], [ 120.6420367, 23.293048 ], [ 120.6439592, 23.2814788 ], [ 120.6421969, 23.2567337 ], [ 120.6486054, 23.2488603 ], [ 120.6535719, 23.2245972 ], [ 120.6562955, 23.2178485 ], [ 120.6433184, 23.2032264 ], [ 120.6365895, 23.1903718 ], [ 120.6399539, 23.182659 ], [ 120.6306617, 23.1701258 ], [ 120.616563, 23.1630557 ], [ 120.6117567, 23.1516473 ], [ 120.6010225, 23.1440952 ], [ 120.588526, 23.1233671 ], [ 120.5882055, 23.1142082 ], [ 120.5741069, 23.0946049 ], [ 120.5747477, 23.0913913 ], [ 120.5531192, 23.0679316 ], [ 120.542385, 23.0634325 ], [ 120.5037739, 23.0287251 ], [ 120.482626, 23.0155491 ], [ 120.4784605, 23.0034979 ], [ 120.4603565, 23.0033372 ], [ 120.453147, 22.9785921 ], [ 120.4449762, 22.9795562 ], [ 120.4329603, 22.9560965 ], [ 120.4164585, 22.9164079 ], [ 120.4087683, 22.9123909 ], [ 120.3985148, 22.9225139 ], [ 120.3805711, 22.9201036 ], [ 120.3724003, 22.9077311 ], [ 120.3624671, 22.9019465 ], [ 120.3509319, 22.8890919 ], [ 120.3325075, 22.8892526 ], [ 120.3241765, 22.9003397 ], [ 120.3145638, 22.8996969 ], [ 120.2780355, 22.9045174 ], [ 120.2740302, 22.8951978 ], [ 120.2600918, 22.9017858 ], [ 120.2540038, 22.8942337 ], [ 120.2429492, 22.9035533 ], [ 120.2331762, 22.9053208 ], [ 120.2317343, 22.9154438 ], [ 120.2201991, 22.9096593 ], [ 120.1920018, 22.9212284 ], [ 120.1750194, 22.9117481 ], [ 120.1916814, 22.86981 ], [ 120.1931233, 22.8600083 ], [ 120.2121885, 22.8076258 ], [ 120.2344579, 22.7602244 ], [ 120.2557661, 22.7179649 ], [ 120.2636165, 22.7280879 ], [ 120.2751517, 22.7316229 ], [ 120.2775549, 22.7378895 ], [ 120.2911729, 22.7372468 ], [ 120.3009458, 22.729052 ], [ 120.3113596, 22.7308195 ], [ 120.3155251, 22.7370861 ], [ 120.323055, 22.7343545 ], [ 120.3273808, 22.7549219 ], [ 120.3406783, 22.7438348 ], [ 120.3403579, 22.7301768 ], [ 120.3294635, 22.7112162 ], [ 120.3148842, 22.6959514 ], [ 120.3228948, 22.6879173 ], [ 120.328342, 22.671849 ], [ 120.3393966, 22.6708849 ], [ 120.3309054, 22.6601192 ], [ 120.3454847, 22.6461398 ], [ 120.3456449, 22.6265365 ], [ 120.3345903, 22.6185024 ], [ 120.3382752, 22.6054871 ], [ 120.3228948, 22.5964888 ], [ 120.3257786, 22.5850804 ], [ 120.3429213, 22.5834736 ], [ 120.3704777, 22.5871693 ], [ 120.3855376, 22.5772069 ], [ 120.385057, 22.5709403 ], [ 120.3945095, 22.5659591 ], [ 120.3988352, 22.5489268 ], [ 120.3924267, 22.5373576 ], [ 120.3741626, 22.5267526 ], [ 120.3602242, 22.5076314 ], [ 120.3997965, 22.480476 ], [ 120.4130941, 22.4756555 ], [ 120.4239885, 22.4771017 ] ] ] } },
{ "type": "Feature", "properties": { "COUNTYSN": "64000001", "COUNTYNAME": "高雄市" }, "geometry": { "type": "Polygon", "coordinates": [ [ [ 120.3602242, 22.5076314 ], [ 120.3741626, 22.5267526 ], [ 120.3924267, 22.5373576 ], [ 120.3988352, 22.5489268 ], [ 120.3945095, 22.5659591 ], [ 120.385057, 22.5709403 ], [ 120.3855376, 22.5772069 ], [ 120.3704777, 22.5871693 ], [ 120.3429213, 22.5834736 ], [ 120.3257786, 22.5850804 ], [ 120.3228948, 22.5964888 ], [ 120.3382752, 22.6054871 ], [ 120.3345903, 22.6185024 ], [ 120.3456449, 22.6265365 ], [ 120.3454847, 22.6461398 ], [ 120.3309054, 22.6601192 ], [ 120.3393966, 22.6708849 ], [ 120.328342, 22.671849 ], [ 120.3228948, 22.6879173 ], [ 120.3148842, 22.6959514 ], [ 120.3294635, 22.7112162 ], [ 120.3403579, 22.7301768 ], [ 120.3406783, 22.7438348 ], [ 120.3273808, 22.7549219 ], [ 120.323055, 22.7343545 ], [ 120.3155251, 22.7370861 ], [ 120.3113596, 22.7308195 ], [ 120.3009458, 22.729052 ], [ 120.2911729, 22.7372468 ], [ 120.2775549, 22.7378895 ], [ 120.2751517, 22.7316229 ], [ 120.2636165, 22.7280879 ], [ 120.2557661, 22.7179649 ], [ 120.2616939, 22.6999684 ], [ 120.268583, 22.708806 ], [ 120.2745109, 22.6839002 ], [ 120.2533629, 22.665261 ], [ 120.2514404, 22.6453364 ], [ 120.2632961, 22.6239656 ], [ 120.2623348, 22.6140033 ], [ 120.3035092, 22.5643523 ], [ 120.3168068, 22.551337 ], [ 120.314724, 22.5471593 ], [ 120.338115, 22.5253064 ], [ 120.3602242, 22.5076314 ] ] ] } },
{ "type": "Feature", "properties": { "COUNTYSN": "10002046", "COUNTYNAME": "宜蘭縣" }, "geometry": { "type": "Polygon", "coordinates": [ [ [ 121.9641043, 24.8372079 ], [ 121.9564141, 24.8490984 ], [ 121.9482433, 24.8503839 ], [ 121.941194, 24.8383327 ], [ 121.9641043, 24.8372079 ] ] ] } },
{ "type": "Feature", "properties": { "COUNTYSN": "10002058", "COUNTYNAME": "宜蘭縣" }, "geometry": { "type": "Polygon", "coordinates": [ [ [ 121.7736125, 24.3145074 ], [ 121.7707287, 24.3337893 ], [ 121.7872305, 24.3733172 ], [ 121.7893132, 24.3996691 ], [ 121.7931583, 24.4168622 ], [ 121.8008485, 24.4340552 ], [ 121.8123837, 24.4435355 ], [ 121.821676, 24.4565508 ], [ 121.8202341, 24.4613713 ], [ 121.8328908, 24.4681199 ], [ 121.8513152, 24.4840275 ], [ 121.846669, 24.4967214 ], [ 121.8399402, 24.4983283 ], [ 121.8418627, 24.5203418 ], [ 121.8697395, 24.5283759 ], [ 121.8737448, 24.5348032 ], [ 121.8694191, 24.5704748 ], [ 121.8719825, 24.5844541 ], [ 121.865574, 24.5838114 ], [ 121.859486, 24.6037361 ], [ 121.8670159, 24.6051822 ], [ 121.857243, 24.6186795 ], [ 121.8433046, 24.6501733 ], [ 121.8373768, 24.6794176 ], [ 121.8365757, 24.7139643 ], [ 121.8256813, 24.7334069 ], [ 121.8192728, 24.7579914 ], [ 121.8189524, 24.7978407 ], [ 121.8242394, 24.8291738 ], [ 121.8356144, 24.8696658 ], [ 121.8658945, 24.9030878 ], [ 121.8849597, 24.9178706 ], [ 121.8856005, 24.9312072 ], [ 121.8939315, 24.9403661 ], [ 121.9197256, 24.9554703 ], [ 121.9264545, 24.969289 ], [ 121.957055, 24.9827863 ], [ 121.9660268, 24.9831077 ], [ 121.9629828, 24.9876068 ], [ 121.9440778, 24.9879282 ], [ 121.9335038, 24.9808582 ], [ 121.9126763, 24.9782872 ], [ 121.8886445, 24.9631831 ], [ 121.8718223, 24.9607728 ], [ 121.8610881, 24.9636651 ], [ 121.8473099, 24.9602908 ], [ 121.8415423, 24.9543455 ], [ 121.8397799, 24.9422943 ], [ 121.8535582, 24.9251013 ], [ 121.8314489, 24.9048553 ], [ 121.8183116, 24.9027664 ], [ 121.8115827, 24.9064621 ], [ 121.7816231, 24.8894297 ], [ 121.7832252, 24.8741649 ], [ 121.7753748, 24.8651667 ], [ 121.7692868, 24.8658094 ], [ 121.761116, 24.8568112 ], [ 121.7420508, 24.8524727 ], [ 121.7305155, 24.855365 ], [ 121.6875788, 24.8248353 ], [ 121.6882196, 24.8161585 ], [ 121.6768446, 24.8140696 ], [ 121.6691544, 24.817926 ], [ 121.6608234, 24.8108559 ], [ 121.6472054, 24.8139089 ], [ 121.6457635, 24.8097312 ], [ 121.6258972, 24.8087671 ], [ 121.625737, 24.7954304 ], [ 121.6095556, 24.7938236 ], [ 121.5935344, 24.7872356 ], [ 121.5975397, 24.7726135 ], [ 121.5888883, 24.7550991 ], [ 121.5960978, 24.7481897 ], [ 121.5941753, 24.7292292 ], [ 121.5869658, 24.7200703 ], [ 121.5794358, 24.7223198 ], [ 121.5704639, 24.7139643 ], [ 121.5432279, 24.7056088 ], [ 121.5363388, 24.6882551 ], [ 121.5238423, 24.6832739 ], [ 121.5118264, 24.6843987 ], [ 121.4924408, 24.6731509 ], [ 121.4797841, 24.6737937 ], [ 121.4597576, 24.6733116 ], [ 121.4475815, 24.6572434 ], [ 121.4512664, 24.6509767 ], [ 121.440372, 24.6349085 ], [ 121.4278755, 24.606307 ], [ 121.4128156, 24.6037361 ], [ 121.4030426, 24.5916849 ], [ 121.4120145, 24.5730457 ], [ 121.4038437, 24.5688679 ], [ 121.3948718, 24.556174 ], [ 121.3967944, 24.5397844 ], [ 121.4016007, 24.52934 ], [ 121.3905461, 24.5229127 ], [ 121.3834968, 24.5100581 ], [ 121.3732432, 24.509576 ], [ 121.3713207, 24.4983283 ], [ 121.3572221, 24.4862771 ], [ 121.3455266, 24.4841882 ], [ 121.3362343, 24.4677986 ], [ 121.323898, 24.4568721 ], [ 121.3166885, 24.441768 ], [ 121.326942, 24.4343766 ], [ 121.326942, 24.398705 ], [ 121.337516, 24.3903495 ], [ 121.3544985, 24.3934025 ], [ 121.363951, 24.3895461 ], [ 121.3727626, 24.3686574 ], [ 121.3804528, 24.3673719 ], [ 121.3892644, 24.3757274 ], [ 121.4368473, 24.3834402 ], [ 121.4416537, 24.3737992 ], [ 121.4469407, 24.3755667 ], [ 121.450946, 24.3654437 ], [ 121.4650446, 24.3554814 ], [ 121.4857119, 24.3485721 ], [ 121.4983686, 24.3392525 ], [ 121.525124, 24.3424661 ], [ 121.5393829, 24.3358781 ], [ 121.5441892, 24.3378063 ], [ 121.5565255, 24.3304149 ], [ 121.55989, 24.3228628 ], [ 121.6013848, 24.3145074 ], [ 121.6042686, 24.3289688 ], [ 121.6201296, 24.3453584 ], [ 121.6215715, 24.3664078 ], [ 121.631024, 24.3705856 ], [ 121.6486473, 24.3495362 ], [ 121.6640276, 24.3490541 ], [ 121.6758833, 24.337485 ], [ 121.6859766, 24.3403773 ], [ 121.68854, 24.3336286 ], [ 121.6976721, 24.3341106 ], [ 121.7135331, 24.3268799 ], [ 121.7446141, 24.3228628 ], [ 121.7591934, 24.314186 ], [ 121.7736125, 24.3145074 ] ] ] } },
{ "type": "Feature", "properties": { "COUNTYSN": "10015005", "COUNTYNAME": "花蓮縣" }, "geometry": { "type": "Polygon", "coordinates": [ [ [ 121.0283073, 23.297065 ], [ 121.0388813, 23.3006001 ], [ 121.0563444, 23.2901557 ], [ 121.062112, 23.2790686 ], [ 121.0624324, 23.2658926 ], [ 121.0795751, 23.232792 ], [ 121.092392, 23.2339168 ], [ 121.1085734, 23.2234724 ], [ 121.1292407, 23.2233117 ], [ 121.1398147, 23.2014589 ], [ 121.1559961, 23.2001734 ], [ 121.1616035, 23.2062794 ], [ 121.1758623, 23.2101357 ], [ 121.1909222, 23.2022623 ], [ 121.1981318, 23.1886043 ], [ 121.1992533, 23.1751069 ], [ 121.2125508, 23.1548609 ], [ 121.21191, 23.1442559 ], [ 121.230815, 23.1392747 ], [ 121.2385051, 23.1286697 ], [ 121.2492393, 23.1315619 ], [ 121.2670228, 23.1143689 ], [ 121.2642992, 23.1039245 ], [ 121.2723098, 23.0978186 ], [ 121.2844859, 23.1064955 ], [ 121.3029103, 23.1109946 ], [ 121.3160476, 23.1106732 ], [ 121.3226163, 23.1199928 ], [ 121.3203734, 23.1378286 ], [ 121.3272625, 23.1521293 ], [ 121.3174895, 23.1643412 ], [ 121.3237378, 23.1783206 ], [ 121.3346322, 23.1778385 ], [ 121.3469685, 23.2093323 ], [ 121.3464879, 23.2170451 ], [ 121.356421, 23.223151 ], [ 121.3525759, 23.2313459 ], [ 121.3615478, 23.2469321 ], [ 121.3593048, 23.252556 ], [ 121.3778894, 23.2695883 ], [ 121.3764475, 23.2957796 ], [ 121.3878225, 23.3107231 ], [ 121.3902257, 23.3205247 ], [ 121.3998384, 23.3232563 ], [ 121.4020814, 23.334022 ], [ 121.4227487, 23.3600526 ], [ 121.4073684, 23.3645517 ], [ 121.3999986, 23.3854405 ], [ 121.4104124, 23.3987771 ], [ 121.4195445, 23.4193445 ], [ 121.4333227, 23.4328418 ], [ 121.4408526, 23.4339666 ], [ 121.4474213, 23.4437683 ], [ 121.4620006, 23.4394298 ], [ 121.4732154, 23.4405546 ], [ 121.4804249, 23.430753 ], [ 121.4958053, 23.4346094 ], [ 121.5026944, 23.4664245 ], [ 121.5134286, 23.4829748 ], [ 121.5065394, 23.4916517 ], [ 121.5028546, 23.5170395 ], [ 121.5113458, 23.5536752 ], [ 121.5260853, 23.5777776 ], [ 121.5296099, 23.5968988 ], [ 121.5302508, 23.6272678 ], [ 121.5368195, 23.6505668 ], [ 121.5419462, 23.6528163 ], [ 121.5459515, 23.6772401 ], [ 121.5531611, 23.6984502 ], [ 121.5488354, 23.7125903 ], [ 121.5531611, 23.7244808 ], [ 121.5600502, 23.729462 ], [ 121.5728671, 23.7604737 ], [ 121.5701435, 23.7807197 ], [ 121.5730273, 23.8028939 ], [ 121.587126, 23.8292459 ], [ 121.5980204, 23.860579 ], [ 121.6034676, 23.8862882 ], [ 121.6053901, 23.9158538 ], [ 121.6113179, 23.9340109 ], [ 121.6058707, 23.955221 ], [ 121.6198092, 23.97852 ], [ 121.6345487, 23.9888037 ], [ 121.6353497, 24.0016583 ], [ 121.6425592, 23.9994087 ], [ 121.6472054, 24.008407 ], [ 121.6430399, 24.0193334 ], [ 121.628781, 24.0325094 ], [ 121.6209307, 24.0474528 ], [ 121.6154835, 24.0709125 ], [ 121.6177264, 24.0845705 ], [ 121.6331067, 24.1073875 ], [ 121.6531332, 24.1204028 ], [ 121.6630664, 24.1345428 ], [ 121.666591, 24.1486829 ], [ 121.660503, 24.1623409 ], [ 121.6587406, 24.1790519 ], [ 121.6637072, 24.1951202 ], [ 121.6746016, 24.2081355 ], [ 121.7058429, 24.2256499 ], [ 121.7176986, 24.2431643 ], [ 121.7282725, 24.2457352 ], [ 121.7444539, 24.2624462 ], [ 121.7470173, 24.2769076 ], [ 121.7567902, 24.2916904 ], [ 121.7692868, 24.3030989 ], [ 121.7736125, 24.3145074 ], [ 121.7591934, 24.314186 ], [ 121.7446141, 24.3228628 ], [ 121.7135331, 24.3268799 ], [ 121.6976721, 24.3341106 ], [ 121.68854, 24.3336286 ], [ 121.6859766, 24.3403773 ], [ 121.6758833, 24.337485 ], [ 121.6640276, 24.3490541 ], [ 121.6486473, 24.3495362 ], [ 121.631024, 24.3705856 ], [ 121.6215715, 24.3664078 ], [ 121.6201296, 24.3453584 ], [ 121.6042686, 24.3289688 ], [ 121.6013848, 24.3145074 ], [ 121.55989, 24.3228628 ], [ 121.5565255, 24.3304149 ], [ 121.5441892, 24.3378063 ], [ 121.5393829, 24.3358781 ], [ 121.525124, 24.3424661 ], [ 121.4983686, 24.3392525 ], [ 121.4857119, 24.3485721 ], [ 121.4650446, 24.3554814 ], [ 121.450946, 24.3654437 ], [ 121.4410128, 24.3594985 ], [ 121.4347646, 24.34809 ], [ 121.4317205, 24.3300936 ], [ 121.4341237, 24.3230235 ], [ 121.4227487, 24.3090441 ], [ 121.4046448, 24.3088835 ], [ 121.4019212, 24.2961895 ], [ 121.3799721, 24.2799606 ], [ 121.3844581, 24.2553761 ], [ 121.3663541, 24.2524839 ], [ 121.3520953, 24.244289 ], [ 121.3519351, 24.2349695 ], [ 121.3426428, 24.224043 ], [ 121.3490513, 24.2108671 ], [ 121.3493717, 24.2010654 ], [ 121.3251797, 24.1959236 ], [ 121.3059543, 24.1801767 ], [ 121.2864085, 24.1774451 ], [ 121.288331, 24.1576811 ], [ 121.2814419, 24.1355069 ], [ 121.2953803, 24.1326146 ], [ 121.3162079, 24.1163857 ], [ 121.3285442, 24.1142968 ], [ 121.3258206, 24.102567 ], [ 121.3190917, 24.0951756 ], [ 121.323097, 24.0848919 ], [ 121.3081973, 24.0733227 ], [ 121.2990652, 24.0615929 ], [ 121.2957007, 24.0638425 ], [ 121.2832042, 24.0540408 ], [ 121.2854472, 24.039258 ], [ 121.2764753, 24.0243146 ], [ 121.2700669, 24.0068001 ], [ 121.261095, 23.9941062 ], [ 121.2647799, 23.9753064 ], [ 121.2737517, 23.974985 ], [ 121.2779172, 23.9658261 ], [ 121.2719894, 23.9381887 ], [ 121.2764753, 23.9226025 ], [ 121.2759947, 23.9097478 ], [ 121.261095, 23.9026778 ], [ 121.2683045, 23.8833959 ], [ 121.2651003, 23.8727908 ], [ 121.2530844, 23.8679704 ], [ 121.2489189, 23.8520628 ], [ 121.2393062, 23.840333 ], [ 121.2344998, 23.8120528 ], [ 121.2274505, 23.8081964 ], [ 121.2284118, 23.7852188 ], [ 121.2047005, 23.7723642 ], [ 121.2064628, 23.7625626 ], [ 121.2288924, 23.7447268 ], [ 121.2410685, 23.7092159 ], [ 121.2394664, 23.6868811 ], [ 121.2324171, 23.6770794 ], [ 121.2357815, 23.662618 ], [ 121.2240861, 23.6386763 ], [ 121.2248871, 23.6271071 ], [ 121.2173572, 23.6147346 ], [ 121.2135121, 23.6005945 ], [ 121.206623, 23.5959347 ], [ 121.1941265, 23.6005945 ], [ 121.1797074, 23.5899894 ], [ 121.1789064, 23.5835621 ], [ 121.1534327, 23.5867758 ], [ 121.1518306, 23.5742425 ], [ 121.160482, 23.5695828 ], [ 121.1571176, 23.5594597 ], [ 121.1462232, 23.5546393 ], [ 121.1510295, 23.5453197 ], [ 121.1470242, 23.5271625 ], [ 121.1356492, 23.515272 ], [ 121.1202688, 23.5210566 ], [ 121.1036068, 23.5189677 ], [ 121.0973586, 23.5216993 ], [ 121.0920716, 23.5146293 ], [ 121.0685204, 23.5184857 ], [ 121.062112, 23.4993645 ], [ 121.0526595, 23.4935799 ], [ 121.0534605, 23.4877953 ], [ 121.0392017, 23.4741373 ], [ 121.0589077, 23.4619254 ], [ 121.051538, 23.4508383 ], [ 121.0345555, 23.4456965 ], [ 121.0151699, 23.4352521 ], [ 121.0291083, 23.4227188 ], [ 121.0267052, 23.4060079 ], [ 121.00764, 23.3867259 ], [ 120.9880941, 23.3706577 ], [ 120.9871329, 23.3587672 ], [ 121.0009111, 23.3561962 ], [ 121.0098829, 23.3460732 ], [ 121.0199763, 23.3504117 ], [ 121.0246224, 23.3399673 ], [ 121.0488144, 23.3253452 ], [ 121.0464112, 23.3091162 ], [ 121.0323126, 23.3038137 ], [ 121.0283073, 23.297065 ] ] ] } },
{ "type": "Feature", "properties": { "COUNTYSN": "10004001", "COUNTYNAME": "新竹縣" }, "geometry": { "type": "Polygon", "coordinates": [ [ [ 120.9860114, 24.939402 ], [ 120.9808846, 24.9390807 ], [ 120.9656645, 24.9165851 ], [ 120.9602173, 24.9006775 ], [ 120.9528475, 24.8921613 ], [ 120.945638, 24.8748076 ], [ 120.9339426, 24.8625957 ], [ 120.9336221, 24.8527941 ], [ 120.9552507, 24.8343156 ], [ 121.0002702, 24.8221037 ], [ 121.0182139, 24.8073209 ], [ 121.0206171, 24.7939843 ], [ 121.0275062, 24.7827365 ], [ 121.0327932, 24.7620084 ], [ 121.0199763, 24.757188 ], [ 121.0135678, 24.770846 ], [ 120.9930607, 24.7806476 ], [ 120.9858512, 24.7769519 ], [ 120.9871329, 24.7684357 ], [ 120.9794427, 24.7632939 ], [ 120.96983, 24.7652221 ], [ 120.9674268, 24.7563845 ], [ 120.9538088, 24.7433692 ], [ 120.9461186, 24.7452974 ], [ 120.9379478, 24.7295505 ], [ 120.9353845, 24.7126789 ], [ 120.9498035, 24.711072 ], [ 120.9550905, 24.7044841 ], [ 120.9717525, 24.7125182 ], [ 120.9739955, 24.696932 ], [ 120.9658247, 24.6848808 ], [ 120.9763987, 24.6832739 ], [ 120.9771997, 24.6742757 ], [ 120.997066, 24.6546724 ], [ 121.0103636, 24.6562793 ], [ 121.0081206, 24.6443888 ], [ 121.0252633, 24.6411751 ], [ 121.0294288, 24.6328196 ], [ 121.043207, 24.6271957 ], [ 121.0533003, 24.6154659 ], [ 121.0624324, 24.6217325 ], [ 121.0736472, 24.6132163 ], [ 121.0830997, 24.590078 ], [ 121.0754096, 24.5810798 ], [ 121.0706032, 24.5634047 ], [ 121.0627528, 24.5574595 ], [ 121.0803761, 24.5412305 ], [ 121.0782934, 24.528858 ], [ 121.0669183, 24.522752 ], [ 121.0718849, 24.4983283 ], [ 121.086304, 24.5010599 ], [ 121.09848, 24.4965608 ], [ 121.1237935, 24.5100581 ], [ 121.1369309, 24.5066838 ], [ 121.1451017, 24.5119863 ], [ 121.1502285, 24.5063624 ], [ 121.1691334, 24.5026667 ], [ 121.1779451, 24.5076479 ], [ 121.1865965, 24.5053983 ], [ 121.2008554, 24.5115042 ], [ 121.2234452, 24.506041 ], [ 121.2186389, 24.4983283 ], [ 121.2346601, 24.4877232 ], [ 121.244433, 24.4700481 ], [ 121.258051, 24.4632995 ], [ 121.2625369, 24.4552653 ], [ 121.258051, 24.4409646 ], [ 121.2594929, 24.4290741 ], [ 121.268625, 24.4274672 ], [ 121.3045124, 24.4327698 ], [ 121.3166885, 24.441768 ], [ 121.323898, 24.4568721 ], [ 121.3362343, 24.4677986 ], [ 121.3455266, 24.4841882 ], [ 121.3572221, 24.4862771 ], [ 121.3713207, 24.4983283 ], [ 121.3732432, 24.509576 ], [ 121.3834968, 24.5100581 ], [ 121.3905461, 24.5229127 ], [ 121.4016007, 24.52934 ], [ 121.3967944, 24.5397844 ], [ 121.3948718, 24.556174 ], [ 121.4038437, 24.5688679 ], [ 121.4120145, 24.5730457 ], [ 121.4030426, 24.5916849 ], [ 121.3875021, 24.586543 ], [ 121.3724422, 24.5940951 ], [ 121.3634703, 24.6029326 ], [ 121.3588242, 24.6173941 ], [ 121.3655531, 24.6307307 ], [ 121.3580231, 24.633623 ], [ 121.3522555, 24.6448708 ], [ 121.3535372, 24.6662416 ], [ 121.339759, 24.6704193 ], [ 121.3387977, 24.6795782 ], [ 121.3296656, 24.6909867 ], [ 121.3181304, 24.6980568 ], [ 121.3038715, 24.6929149 ], [ 121.2995458, 24.6966106 ], [ 121.3075564, 24.7199096 ], [ 121.2985846, 24.730836 ], [ 121.3077166, 24.7550991 ], [ 121.3014684, 24.7631332 ], [ 121.2771162, 24.7710067 ], [ 121.2602939, 24.7819331 ], [ 121.2612552, 24.7899672 ], [ 121.2471566, 24.7973586 ], [ 121.2453942, 24.8069996 ], [ 121.2215227, 24.7994475 ], [ 121.217197, 24.8124628 ], [ 121.2074241, 24.8069996 ], [ 121.2032586, 24.8172832 ], [ 121.1737796, 24.8275669 ], [ 121.176343, 24.8319054 ], [ 121.1519908, 24.8437959 ], [ 121.1612831, 24.8595428 ], [ 121.1558359, 24.8805922 ], [ 121.1388534, 24.8823597 ], [ 121.1356492, 24.8780213 ], [ 121.1084132, 24.8860554 ], [ 121.109054, 24.8977852 ], [ 121.0911103, 24.8934468 ], [ 121.0835804, 24.8987493 ], [ 121.0710838, 24.8995527 ], [ 121.059068, 24.9071048 ], [ 121.0608303, 24.9202808 ], [ 121.057626, 24.9329747 ], [ 121.0377598, 24.9463114 ], [ 121.0193354, 24.9403661 ], [ 121.0071593, 24.9461507 ], [ 121.0029938, 24.9400448 ], [ 120.9860114, 24.939402 ] ] ] } },
{ "type": "Feature", "properties": { "COUNTYSN": "10018001", "COUNTYNAME": "新竹市" }, "geometry": { "type": "Polygon", "coordinates": [ [ [ 120.9336221, 24.8527941 ], [ 120.9232084, 24.8445993 ], [ 120.9036625, 24.8174439 ], [ 120.8924477, 24.7883604 ], [ 120.8927681, 24.7693998 ], [ 120.8996572, 24.7604016 ], [ 120.8785093, 24.7351744 ], [ 120.8910058, 24.7318001 ], [ 120.9059055, 24.7406376 ], [ 120.9159988, 24.7205523 ], [ 120.9353845, 24.7126789 ], [ 120.9379478, 24.7295505 ], [ 120.9461186, 24.7452974 ], [ 120.9538088, 24.7433692 ], [ 120.9674268, 24.7563845 ], [ 120.96983, 24.7652221 ], [ 120.9794427, 24.7632939 ], [ 120.9871329, 24.7684357 ], [ 120.9858512, 24.7769519 ], [ 120.9930607, 24.7806476 ], [ 121.0135678, 24.770846 ], [ 121.0199763, 24.757188 ], [ 121.0327932, 24.7620084 ], [ 121.0275062, 24.7827365 ], [ 121.0206171, 24.7939843 ], [ 121.0182139, 24.8073209 ], [ 121.0002702, 24.8221037 ], [ 120.9552507, 24.8343156 ], [ 120.9336221, 24.8527941 ] ] ] } },
{ "type": "Feature", "properties": { "COUNTYSN": "10010009", "COUNTYNAME": "嘉義縣" }, "geometry": { "type": "Polygon", "coordinates": [ [ [ 120.6535719, 23.2245972 ], [ 120.6486054, 23.2488603 ], [ 120.6421969, 23.2567337 ], [ 120.6439592, 23.2814788 ], [ 120.6420367, 23.293048 ], [ 120.6580579, 23.2959403 ], [ 120.6713554, 23.289995 ], [ 120.6936249, 23.2845318 ], [ 120.703558, 23.2891916 ], [ 120.7037182, 23.3004394 ], [ 120.7122095, 23.3086342 ], [ 120.7306338, 23.3055812 ], [ 120.7301532, 23.3110444 ], [ 120.7480969, 23.3221315 ], [ 120.7588311, 23.3364323 ], [ 120.7596321, 23.344145 ], [ 120.7831833, 23.3422169 ], [ 120.7884703, 23.3528219 ], [ 120.8048119, 23.3672833 ], [ 120.8286834, 23.3751568 ], [ 120.8307662, 23.3862439 ], [ 120.8493507, 23.4121138 ], [ 120.8495109, 23.4201479 ], [ 120.8645709, 23.4238436 ], [ 120.8860392, 23.43477 ], [ 120.9004583, 23.454052 ], [ 120.9129548, 23.4585511 ], [ 120.9268932, 23.4558195 ], [ 120.9366662, 23.4636929 ], [ 120.9483616, 23.464175 ], [ 120.9576539, 23.4694775 ], [ 120.9474003, 23.4670672 ], [ 120.937307, 23.4731732 ], [ 120.9315394, 23.4706023 ], [ 120.9177612, 23.4755834 ], [ 120.8871607, 23.4755834 ], [ 120.8804318, 23.4675493 ], [ 120.8634494, 23.4734946 ], [ 120.8394176, 23.471245 ], [ 120.8270813, 23.4831355 ], [ 120.8203524, 23.521378 ], [ 120.8086569, 23.5358394 ], [ 120.8141041, 23.5562461 ], [ 120.8206728, 23.5625127 ], [ 120.8195513, 23.575046 ], [ 120.8254792, 23.5864544 ], [ 120.8137837, 23.6009159 ], [ 120.8036904, 23.5967381 ], [ 120.7774156, 23.6025227 ], [ 120.763317, 23.612485 ], [ 120.7546656, 23.6144132 ], [ 120.730794, 23.6107175 ], [ 120.7248662, 23.6036475 ], [ 120.7325563, 23.5972202 ], [ 120.7320757, 23.5771348 ], [ 120.7184577, 23.5691007 ], [ 120.7093256, 23.575046 ], [ 120.6941055, 23.5763314 ], [ 120.6761618, 23.5705468 ], [ 120.6705544, 23.5782596 ], [ 120.6508483, 23.572475 ], [ 120.6441194, 23.579063 ], [ 120.6487656, 23.5933638 ], [ 120.6255349, 23.5906322 ], [ 120.618806, 23.5842049 ], [ 120.5768305, 23.5835621 ], [ 120.5566438, 23.5928817 ], [ 120.5369378, 23.5948099 ], [ 120.5175521, 23.6110389 ], [ 120.5063373, 23.626143 ], [ 120.5036137, 23.6353019 ], [ 120.4858302, 23.6306421 ], [ 120.4786207, 23.632731 ], [ 120.4601963, 23.629196 ], [ 120.4444956, 23.6304815 ], [ 120.4299163, 23.6184303 ], [ 120.4026803, 23.6269464 ], [ 120.3864989, 23.6210012 ], [ 120.37977, 23.6099141 ], [ 120.3664724, 23.6078252 ], [ 120.3566995, 23.5940065 ], [ 120.333629, 23.591757 ], [ 120.3325075, 23.5782596 ], [ 120.3105585, 23.5646016 ], [ 120.2932557, 23.5641195 ], [ 120.2908525, 23.5512649 ], [ 120.276113, 23.5430701 ], [ 120.2724281, 23.5313403 ], [ 120.2628154, 23.5342326 ], [ 120.2560865, 23.5461231 ], [ 120.2421481, 23.5414633 ], [ 120.2471147, 23.5162361 ], [ 120.2415073, 23.5090054 ], [ 120.2230829, 23.5043456 ], [ 120.1956867, 23.5128618 ], [ 120.1804666, 23.5099695 ], [ 120.1665281, 23.5172002 ], [ 120.1458608, 23.5207352 ], [ 120.1424964, 23.5173609 ], [ 120.1272763, 23.5202532 ], [ 120.1189452, 23.5151113 ], [ 120.1194259, 23.4955081 ], [ 120.1247129, 23.4887594 ], [ 120.1551531, 23.491009 ], [ 120.1557939, 23.4840996 ], [ 120.1440985, 23.4701202 ], [ 120.1445791, 23.4596758 ], [ 120.1546725, 23.4477853 ], [ 120.1465017, 23.4375016 ], [ 120.151308, 23.4260932 ], [ 120.148264, 23.4151668 ], [ 120.1541918, 23.4042403 ], [ 120.1599595, 23.4061685 ], [ 120.1636443, 23.3929926 ], [ 120.1577165, 23.3831909 ], [ 120.1473027, 23.3844764 ], [ 120.1442587, 23.3725859 ], [ 120.1389717, 23.3741927 ], [ 120.1229505, 23.3545894 ], [ 120.1181442, 23.340128 ], [ 120.1485844, 23.3197213 ], [ 120.1485844, 23.3144188 ], [ 120.1710141, 23.3046171 ], [ 120.1806268, 23.2909591 ], [ 120.1884772, 23.3012428 ], [ 120.2041779, 23.2919232 ], [ 120.2208399, 23.2959403 ], [ 120.2378224, 23.326952 ], [ 120.2564069, 23.3311298 ], [ 120.2671411, 23.34061 ], [ 120.2656992, 23.3523399 ], [ 120.276113, 23.3483228 ], [ 120.2860461, 23.350251 ], [ 120.2858859, 23.3671227 ], [ 120.2929352, 23.3753175 ], [ 120.3110392, 23.3754782 ], [ 120.3110392, 23.3856012 ], [ 120.333629, 23.3859225 ], [ 120.34949, 23.4013481 ], [ 120.3810517, 23.4034369 ], [ 120.4081275, 23.4133993 ], [ 120.4305571, 23.4066506 ], [ 120.4382473, 23.4133993 ], [ 120.4733337, 23.3981344 ], [ 120.4794217, 23.3875294 ], [ 120.4901559, 23.3955635 ], [ 120.499288, 23.3878507 ], [ 120.4843883, 23.3794952 ], [ 120.4943214, 23.3695329 ], [ 120.5048954, 23.3688902 ], [ 120.5119447, 23.3552321 ], [ 120.5036137, 23.3512151 ], [ 120.5079394, 23.3430203 ], [ 120.5156296, 23.343663 ], [ 120.5337335, 23.3364323 ], [ 120.5399818, 23.3279161 ], [ 120.5225187, 23.3116872 ], [ 120.5260434, 23.2924052 ], [ 120.5218779, 23.2879061 ], [ 120.5221983, 23.2739267 ], [ 120.5319712, 23.2554482 ], [ 120.5305293, 23.2490209 ], [ 120.518994, 23.23938 ], [ 120.5263638, 23.2310245 ], [ 120.5415839, 23.2278108 ], [ 120.5548815, 23.2176878 ], [ 120.5652953, 23.2209015 ], [ 120.5782724, 23.2147955 ], [ 120.5866034, 23.2241151 ], [ 120.5971774, 23.2289356 ], [ 120.6098341, 23.222669 ], [ 120.6282585, 23.2294177 ], [ 120.6535719, 23.2245972 ] ], [ [ 120.3941891, 23.4625681 ], [ 120.3993159, 23.4710843 ], [ 120.3943493, 23.4908483 ], [ 120.403962, 23.5038636 ], [ 120.4121328, 23.4990431 ], [ 120.4177402, 23.5056311 ], [ 120.4331205, 23.5088447 ], [ 120.4350431, 23.5172002 ], [ 120.4480202, 23.5181643 ], [ 120.4642016, 23.4992038 ], [ 120.4734939, 23.5069165 ], [ 120.4831066, 23.5053097 ], [ 120.4877528, 23.4919731 ], [ 120.5013708, 23.4897235 ], [ 120.5092211, 23.47478 ], [ 120.4952827, 23.4529272 ], [ 120.4896753, 23.4522844 ], [ 120.4768584, 23.4619254 ], [ 120.4686876, 23.461604 ], [ 120.4528266, 23.444893 ], [ 120.4396892, 23.4395905 ], [ 120.4292755, 23.4609613 ], [ 120.4151768, 23.4603186 ], [ 120.4113317, 23.4648177 ], [ 120.3941891, 23.4625681 ] ] ] } },
{ "type": "Feature", "properties": { "COUNTYSN": "10020001", "COUNTYNAME": "嘉義市" }, "geometry": { "type": "Polygon", "coordinates": [ [ [ 120.3941891, 23.4625681 ], [ 120.4113317, 23.4648177 ], [ 120.4151768, 23.4603186 ], [ 120.4292755, 23.4609613 ], [ 120.4396892, 23.4395905 ], [ 120.4528266, 23.444893 ], [ 120.4686876, 23.461604 ], [ 120.4768584, 23.4619254 ], [ 120.4896753, 23.4522844 ], [ 120.4952827, 23.4529272 ], [ 120.5092211, 23.47478 ], [ 120.5013708, 23.4897235 ], [ 120.4877528, 23.4919731 ], [ 120.4831066, 23.5053097 ], [ 120.4734939, 23.5069165 ], [ 120.4642016, 23.4992038 ], [ 120.4480202, 23.5181643 ], [ 120.4350431, 23.5172002 ], [ 120.4331205, 23.5088447 ], [ 120.4177402, 23.5056311 ], [ 120.4121328, 23.4990431 ], [ 120.403962, 23.5038636 ], [ 120.3943493, 23.4908483 ], [ 120.3993159, 23.4710843 ], [ 120.3941891, 23.4625681 ] ] ] } },
{ "type": "Feature", "properties": { "COUNTYSN": "10007007", "COUNTYNAME": "彰化縣" }, "geometry": { "type": "Polygon", "coordinates": [ [ [ 120.6402744, 23.7860222 ], [ 120.6665491, 23.7935743 ], [ 120.6790456, 23.8059469 ], [ 120.6743995, 23.8200869 ], [ 120.6519698, 23.8125349 ], [ 120.6365895, 23.8247467 ], [ 120.6264962, 23.840815 ], [ 120.618806, 23.8417791 ], [ 120.6266564, 23.8583294 ], [ 120.6200877, 23.8655601 ], [ 120.6349874, 23.8986607 ], [ 120.6319434, 23.9033205 ], [ 120.6370701, 23.9245306 ], [ 120.62938, 23.9296725 ], [ 120.6364293, 23.9375459 ], [ 120.6272972, 23.9520074 ], [ 120.6353078, 23.9523287 ], [ 120.646843, 23.9634158 ], [ 120.6498871, 23.9852687 ], [ 120.6375508, 23.9936242 ], [ 120.6423571, 24.008889 ], [ 120.6724769, 24.0058361 ], [ 120.6787252, 24.0140309 ], [ 120.6558149, 24.0305812 ], [ 120.6446001, 24.0259214 ], [ 120.6280983, 24.0382939 ], [ 120.6234521, 24.051952 ], [ 120.6253747, 24.068663 ], [ 120.6152813, 24.0839278 ], [ 120.6125577, 24.102567 ], [ 120.5728252, 24.1081909 ], [ 120.5497547, 24.1138148 ], [ 120.5327723, 24.126348 ], [ 120.5236402, 24.139524 ], [ 120.5257229, 24.1490043 ], [ 120.5079394, 24.1872467 ], [ 120.4858302, 24.1973697 ], [ 120.4622791, 24.1681255 ], [ 120.4595555, 24.1589666 ], [ 120.4393688, 24.1588059 ], [ 120.4140553, 24.1318112 ], [ 120.403962, 24.125866 ], [ 120.3941891, 24.1064234 ], [ 120.4119726, 24.1033704 ], [ 120.41758, 24.1213668 ], [ 120.436485, 24.1213668 ], [ 120.4310378, 24.0953363 ], [ 120.4262314, 24.0842492 ], [ 120.3969127, 24.0856953 ], [ 120.377527, 24.0765364 ], [ 120.3780077, 24.0580579 ], [ 120.3981944, 24.0583793 ], [ 120.396432, 24.0516306 ], [ 120.3715992, 24.0399008 ], [ 120.3498104, 24.0021404 ], [ 120.3490094, 23.9904105 ], [ 120.3299442, 23.988643 ], [ 120.3211325, 23.9656654 ], [ 120.3044705, 23.9405989 ], [ 120.3190498, 23.9357784 ], [ 120.287488, 23.8755225 ], [ 120.276113, 23.8665242 ], [ 120.2698647, 23.8684524 ], [ 120.2604122, 23.8620251 ], [ 120.2423083, 23.8422611 ], [ 120.2551253, 23.834227 ], [ 120.3081554, 23.8202476 ], [ 120.360064, 23.8233006 ], [ 120.3703175, 23.8286031 ], [ 120.4103705, 23.8263536 ], [ 120.4331205, 23.83021 ], [ 120.4520255, 23.8171947 ], [ 120.4831066, 23.8065896 ], [ 120.5109835, 23.8001623 ], [ 120.5519977, 23.8009657 ], [ 120.5926915, 23.7910034 ], [ 120.630181, 23.7897179 ], [ 120.6402744, 23.7860222 ] ] ] } },
{ "type": "Feature", "properties": { "COUNTYSN": "09007008", "COUNTYNAME": "連江縣" }, "geometry": { "type": "Polygon", "coordinates": [ [ [ 119.9867705, 26.2767634 ], [ 119.9843673, 26.2679259 ], [ 119.9915769, 26.2651943 ], [ 119.9978251, 26.2737105 ], [ 119.9867705, 26.2767634 ] ] ] } },
{ "type": "Feature", "properties": { "COUNTYSN": "09007078", "COUNTYNAME": "連江縣" }, "geometry": { "type": "Polygon", "coordinates": [ [ [ 119.9697881, 26.1636429 ], [ 119.9704289, 26.1641249 ], [ 119.9699483, 26.1638036 ], [ 119.9697881, 26.1638036 ], [ 119.9697881, 26.1636429 ] ] ] } },
{ "type": "Feature", "properties": { "COUNTYSN": "09007289", "COUNTYNAME": "連江縣" }, "geometry": { "type": "Polygon", "coordinates": [ [ [ 119.9774782, 26.1986717 ], [ 119.9781191, 26.2095981 ], [ 119.9925381, 26.2171502 ], [ 120.012084, 26.2210066 ], [ 120.0117636, 26.2328971 ], [ 120.0008692, 26.2369141 ], [ 119.9886931, 26.2237382 ], [ 119.9768374, 26.2193997 ], [ 119.9710698, 26.2014033 ], [ 119.9774782, 26.1986717 ] ] ] } },
{ "type": "Feature", "properties": { "COUNTYSN": "09007290", "COUNTYNAME": "連江縣" }, "geometry": { "type": "Polygon", "coordinates": [ [ [ 119.9731525, 26.1663745 ], [ 119.9544077, 26.1662138 ], [ 119.9423919, 26.1536805 ], [ 119.9292545, 26.1609113 ], [ 119.9141946, 26.1440396 ], [ 119.9313372, 26.1369696 ], [ 119.9412704, 26.1440396 ], [ 119.9475186, 26.1419507 ], [ 119.9677053, 26.1570549 ], [ 119.9691472, 26.1634822 ], [ 119.9697881, 26.1636429 ], [ 119.9697881, 26.1638036 ], [ 119.9699483, 26.1638036 ], [ 119.9704289, 26.1641249 ], [ 119.9731525, 26.1663745 ] ] ] } },
{ "type": "Feature", "properties": { "COUNTYSN": "09007291", "COUNTYNAME": "連江縣" }, "geometry": { "type": "Polygon", "coordinates": [ [ [ 119.9348619, 25.969699 ], [ 119.9406295, 25.966646 ], [ 119.9540873, 25.9777331 ], [ 119.950082, 25.9811074 ], [ 119.9318179, 25.980304 ], [ 119.9348619, 25.969699 ] ] ] } },
{ "type": "Feature", "properties": { "COUNTYSN": "10016002", "COUNTYNAME": "澎湖縣" }, "geometry": { "type": "Polygon", "coordinates": [ [ [ 119.4201015, 23.2038691 ], [ 119.422024, 23.1924607 ], [ 119.435642, 23.2017803 ], [ 119.4426913, 23.2003341 ], [ 119.4438128, 23.2144742 ], [ 119.4399677, 23.2213835 ], [ 119.4100081, 23.2136708 ], [ 119.4201015, 23.2038691 ] ] ] } },
{ "type": "Feature", "properties": { "COUNTYSN": "10016042", "COUNTYNAME": "澎湖縣" }, "geometry": { "type": "Polygon", "coordinates": [ [ [ 119.6062676, 23.7514755 ], [ 119.5958538, 23.7376568 ], [ 119.6033837, 23.7318722 ], [ 119.6117148, 23.7418345 ], [ 119.6062676, 23.7514755 ] ] ] } },
{ "type": "Feature", "properties": { "COUNTYSN": "10016117", "COUNTYNAME": "澎湖縣" }, "geometry": { "type": "Polygon", "coordinates": [ [ [ 119.6653857, 23.2586619 ], [ 119.6650653, 23.2506278 ], [ 119.6721146, 23.2443611 ], [ 119.6794843, 23.2630003 ], [ 119.6653857, 23.2586619 ] ] ] } },
{ "type": "Feature", "properties": { "COUNTYSN": "10016127", "COUNTYNAME": "澎湖縣" }, "geometry": { "type": "Polygon", "coordinates": [ [ [ 119.492357, 23.3814234 ], [ 119.4945999, 23.3653552 ], [ 119.4862689, 23.3560356 ], [ 119.5048535, 23.3553928 ], [ 119.5077373, 23.3648731 ], [ 119.5080577, 23.390743 ], [ 119.4981246, 23.3920285 ], [ 119.492357, 23.3814234 ] ] ] } },
{ "type": "Feature", "properties": { "COUNTYSN": "10016128", "COUNTYNAME": "澎湖縣" }, "geometry": { "type": "Polygon", "coordinates": [ [ [ 119.3151628, 23.400384 ], [ 119.3276593, 23.400866 ], [ 119.328941, 23.4071326 ], [ 119.3190078, 23.4116317 ], [ 119.3151628, 23.400384 ] ] ] } },
{ "type": "Feature", "properties": { "COUNTYSN": "10016133", "COUNTYNAME": "澎湖縣" }, "geometry": { "type": "Polygon", "coordinates": [ [ [ 119.5235983, 23.3659979 ], [ 119.5402603, 23.3663192 ], [ 119.5375367, 23.3741927 ], [ 119.5235983, 23.3659979 ] ] ] } },
{ "type": "Feature", "properties": { "COUNTYSN": "10016197", "COUNTYNAME": "澎湖縣" }, "geometry": { "type": "Polygon", "coordinates": [ [ [ 119.5809541, 23.6614932 ], [ 119.582396, 23.6526557 ], [ 119.5958538, 23.6346592 ], [ 119.5891249, 23.6251789 ], [ 119.5993784, 23.6222867 ], [ 119.5972957, 23.6158593 ], [ 119.6049859, 23.6092714 ], [ 119.6029031, 23.6005945 ], [ 119.606588, 23.5853297 ], [ 119.5984172, 23.5827587 ], [ 119.5972957, 23.5691007 ], [ 119.58544, 23.5737605 ], [ 119.5743854, 23.5848476 ], [ 119.5620491, 23.5853297 ], [ 119.5674963, 23.575046 ], [ 119.5798326, 23.5634768 ], [ 119.5729435, 23.5462838 ], [ 119.5918485, 23.5531931 ], [ 119.5995387, 23.5499795 ], [ 119.6030633, 23.5403385 ], [ 119.574065, 23.5199318 ], [ 119.571822, 23.508684 ], [ 119.5969753, 23.5127011 ], [ 119.6062676, 23.5078806 ], [ 119.6059471, 23.5292514 ], [ 119.61572, 23.5388924 ], [ 119.6314208, 23.5477299 ], [ 119.6463205, 23.5605845 ], [ 119.674678, 23.5612273 ], [ 119.6782026, 23.5514256 ], [ 119.693583, 23.5551213 ], [ 119.6831692, 23.5657264 ], [ 119.6806058, 23.5853297 ], [ 119.66106, 23.5901501 ], [ 119.6546515, 23.5994697 ], [ 119.6466409, 23.6010765 ], [ 119.6328627, 23.595292 ], [ 119.6121954, 23.6026834 ], [ 119.6131567, 23.6203585 ], [ 119.6022623, 23.6283926 ], [ 119.6008204, 23.6479959 ], [ 119.6120352, 23.6500847 ], [ 119.6085105, 23.6629394 ], [ 119.5979365, 23.6745085 ], [ 119.5923291, 23.6716162 ], [ 119.582396, 23.6775615 ], [ 119.5700597, 23.6711342 ], [ 119.55516, 23.6685632 ], [ 119.5541987, 23.6576368 ], [ 119.5402603, 23.6404438 ], [ 119.5311282, 23.6389976 ], [ 119.5115824, 23.6476745 ], [ 119.5021299, 23.6309635 ], [ 119.5000471, 23.618591 ], [ 119.5086986, 23.6132884 ], [ 119.5021299, 23.6036475 ], [ 119.4915559, 23.5981843 ], [ 119.5034116, 23.5890254 ], [ 119.5034116, 23.5792237 ], [ 119.4918763, 23.5699041 ], [ 119.4833851, 23.5753673 ], [ 119.4680048, 23.5634768 ], [ 119.4896334, 23.5626734 ], [ 119.4979644, 23.5681366 ], [ 119.5151071, 23.5641195 ], [ 119.5125437, 23.5923997 ], [ 119.5231176, 23.6017193 ], [ 119.5211951, 23.6206798 ], [ 119.51735, 23.6267858 ], [ 119.5401001, 23.6340165 ], [ 119.5407409, 23.6406045 ], [ 119.5540385, 23.6569941 ], [ 119.5642921, 23.6528163 ], [ 119.5713414, 23.6624573 ], [ 119.5809541, 23.6614932 ] ] ] } },
{ "type": "Feature", "properties": { "COUNTYSN": "09020001", "COUNTYNAME": "金門縣" }, "geometry": { "type": "Polygon", "coordinates": [ [ [ 118.3647865, 24.4284313 ], [ 118.3952267, 24.4363048 ], [ 118.4136511, 24.4274672 ], [ 118.4275895, 24.4253784 ], [ 118.4341582, 24.414934 ], [ 118.4432903, 24.4110776 ], [ 118.4543449, 24.4181476 ], [ 118.455947, 24.4252177 ], [ 118.4657199, 24.4287527 ], [ 118.4610738, 24.4361441 ], [ 118.4727692, 24.4414466 ], [ 118.4719682, 24.451891 ], [ 118.4628361, 24.4618533 ], [ 118.4618748, 24.4755113 ], [ 118.4482568, 24.5084513 ], [ 118.4314346, 24.5102188 ], [ 118.4253465, 24.5256443 ], [ 118.4186176, 24.5278939 ], [ 118.412049, 24.5195384 ], [ 118.3923429, 24.509094 ], [ 118.3950665, 24.4909369 ], [ 118.3857742, 24.4832241 ], [ 118.3843323, 24.4676379 ], [ 118.3687918, 24.4610499 ], [ 118.3449202, 24.4669952 ], [ 118.3141596, 24.4894907 ], [ 118.3051877, 24.4877232 ], [ 118.2918901, 24.4782429 ], [ 118.2878848, 24.469084 ], [ 118.303105, 24.4615319 ], [ 118.3107951, 24.428592 ], [ 118.3010222, 24.4244143 ], [ 118.2995803, 24.4163801 ], [ 118.2781119, 24.4136485 ], [ 118.2982986, 24.3966162 ], [ 118.3200874, 24.3860111 ], [ 118.3305012, 24.3887427 ], [ 118.3401139, 24.408828 ], [ 118.3505276, 24.4213613 ], [ 118.3647865, 24.4284313 ] ] ] } },
{ "type": "Feature", "properties": { "COUNTYSN": "09020002", "COUNTYNAME": "金門縣" }, "geometry": { "type": "Polygon", "coordinates": [ [ [ 118.2633724, 24.4253784 ], [ 118.2670573, 24.4433748 ], [ 118.2515168, 24.4526944 ], [ 118.2290871, 24.4464278 ], [ 118.2271646, 24.4303595 ], [ 118.2170712, 24.4252177 ], [ 118.2260431, 24.4049717 ], [ 118.2348547, 24.4139699 ], [ 118.2478319, 24.4162194 ], [ 118.2523178, 24.4245749 ], [ 118.2633724, 24.4253784 ] ] ] } }
]
}
